{
"type": "FeatureCollection",
"name": "admin_boundaries_okresy_points",
"crs": { "type": "name", "properties": { "name": "urn:ogc:def:crs:EPSG::5514" } },
"features": [
{ "type": "Feature", "properties": { "OBJECTID": 1, "KOD_OKRES": "40169", "KOD_LAU1": "CZ0201", "NAZ_LAU1": "Benešov", "KOD_KRAJ": "3026", "KOD_CZNUTS3": "CZ020", "NAZ_CZNUTS3": "Středočeský kraj", "SNATKY": 412.0, "ROZVODY": 232.0, "NAROZENI": 1086.0, "ZEMRELI": 1073.0, "PRISTEHOVALI": 1547.0, "VYSTEHOVALI": 1193.0, "POCET_OBYV": 97085.0, "MUZI": 48010.0, "ZENY": 49075.0, "OBYV_0_14": 15537.0, "MUZI_0_14": 7888.0, "ZENY_0_14": 7649.0, "OBYV_15_64": 63422.0, "MUZI_15_64": 32427.0, "ZENY_15_64": 30995.0, "OBYV_65": 18126.0, "MUZI_65": 7695.0, "ZENY_65": 10431.0, "MIRA_NEZAM": 3.755883, "MIRA_NEZAM_MUZI": 3.973018, "MIRA_NEZAM_ZENY": 3.547788, "NADEJE_DOZ_MUZI": 75.235682, "NADEJE_DOZ_ZENY": 80.814224, "SX": -723011.501988, "SY": -1087274.98422 }, "geometry": { "type": "Point", "coordinates": [ -723011.502000000327826, -1087274.984200000762939 ] } },
{ "type": "Feature", "properties": { "OBJECTID": 2, "KOD_OKRES": "40177", "KOD_LAU1": "CZ0202", "NAZ_LAU1": "Beroun", "KOD_KRAJ": "3026", "KOD_CZNUTS3": "CZ020", "NAZ_CZNUTS3": "Středočeský kraj", "SNATKY": 383.0, "ROZVODY": 270.0, "NAROZENI": 1046.0, "ZEMRELI": 880.0, "PRISTEHOVALI": 2024.0, "VYSTEHOVALI": 1194.0, "POCET_OBYV": 90168.0, "MUZI": 44431.0, "ZENY": 45737.0, "OBYV_0_14": 15270.0, "MUZI_0_14": 7851.0, "ZENY_0_14": 7419.0, "OBYV_15_64": 59160.0, "MUZI_15_64": 29920.0, "ZENY_15_64": 29240.0, "OBYV_65": 15738.0, "MUZI_65": 6660.0, "ZENY_65": 9078.0, "MIRA_NEZAM": 5.065081, "MIRA_NEZAM_MUZI": 5.405778, "MIRA_NEZAM_ZENY": 4.732233, "NADEJE_DOZ_MUZI": 74.805987, "NADEJE_DOZ_ZENY": 81.414124, "SX": -775114.95169300004, "SY": -1059142.45417 }, "geometry": { "type": "Point", "coordinates": [ -775114.951699998229742, -1059142.454199999570847 ] } },
{ "type": "Feature", "properties": { "OBJECTID": 3, "KOD_OKRES": "40185", "KOD_LAU1": "CZ0203", "NAZ_LAU1": "Kladno", "KOD_KRAJ": "3026", "KOD_CZNUTS3": "CZ020", "NAZ_CZNUTS3": "Středočeský kraj", "SNATKY": 744.0, "ROZVODY": 481.0, "NAROZENI": 1690.0, "ZEMRELI": 1767.0, "PRISTEHOVALI": 3168.0, "VYSTEHOVALI": 2456.0, "POCET_OBYV": 162256.0, "MUZI": 79371.0, "ZENY": 82885.0, "OBYV_0_14": 26493.0, "MUZI_0_14": 13558.0, "ZENY_0_14": 12935.0, "OBYV_15_64": 106723.0, "MUZI_15_64": 53652.0, "ZENY_15_64": 53071.0, "OBYV_65": 29040.0, "MUZI_65": 12161.0, "ZENY_65": 16879.0, "MIRA_NEZAM": 6.923698, "MIRA_NEZAM_MUZI": 7.104167, "MIRA_NEZAM_ZENY": 6.746076, "NADEJE_DOZ_MUZI": 74.740803, "NADEJE_DOZ_ZENY": 80.47883, "SX": -765062.68358800001, "SY": -1027273.54304 }, "geometry": { "type": "Point", "coordinates": [ -765062.683600001037121, -1027273.543000001460314 ] } },
{ "type": "Feature", "properties": { "OBJECTID": 4, "KOD_OKRES": "40193", "KOD_LAU1": "CZ0204", "NAZ_LAU1": "Kolín", "KOD_KRAJ": "3026", "KOD_CZNUTS3": "CZ020", "NAZ_CZNUTS3": "Středočeský kraj", "SNATKY": 399.0, "ROZVODY": 251.0, "NAROZENI": 1046.0, "ZEMRELI": 1017.0, "PRISTEHOVALI": 2211.0, "VYSTEHOVALI": 1550.0, "POCET_OBYV": 98815.0, "MUZI": 48795.0, "ZENY": 50020.0, "OBYV_0_14": 16066.0, "MUZI_0_14": 8305.0, "ZENY_0_14": 7761.0, "OBYV_15_64": 64548.0, "MUZI_15_64": 32906.0, "ZENY_15_64": 31642.0, "OBYV_65": 18201.0, "MUZI_65": 7584.0, "ZENY_65": 10617.0, "MIRA_NEZAM": 7.320911, "MIRA_NEZAM_MUZI": 7.846692, "MIRA_NEZAM_ZENY": 6.8161, "NADEJE_DOZ_MUZI": 75.380646, "NADEJE_DOZ_ZENY": 81.001434, "SX": -696511.06218999997, "SY": -1055073.2352700001 }, "geometry": { "type": "Point", "coordinates": [ -696511.062199998646975, -1055073.235300000756979 ] } },
{ "type": "Feature", "properties": { "OBJECTID": 5, "KOD_OKRES": "40207", "KOD_LAU1": "CZ0205", "NAZ_LAU1": "Kutná Hora", "KOD_KRAJ": "3026", "KOD_CZNUTS3": "CZ020", "NAZ_CZNUTS3": "Středočeský kraj", "SNATKY": 334.0, "ROZVODY": 166.0, "NAROZENI": 818.0, "ZEMRELI": 867.0, "PRISTEHOVALI": 1304.0, "VYSTEHOVALI": 1004.0, "POCET_OBYV": 74495.0, "MUZI": 36821.0, "ZENY": 37674.0, "OBYV_0_14": 10929.0, "MUZI_0_14": 5631.0, "ZENY_0_14": 5298.0, "OBYV_15_64": 49280.0, "MUZI_15_64": 25261.0, "ZENY_15_64": 24019.0, "OBYV_65": 14286.0, "MUZI_65": 5929.0, "ZENY_65": 8357.0, "MIRA_NEZAM": 6.559512, "MIRA_NEZAM_MUZI": 7.156293, "MIRA_NEZAM_ZENY": 5.993578, "NADEJE_DOZ_MUZI": 74.644658, "NADEJE_DOZ_ZENY": 81.056466, "SX": -688229.48861799994, "SY": -1074943.19102 }, "geometry": { "type": "Point", "coordinates": [ -688229.488600000739098, -1074943.190999999642372 ] } },
{ "type": "Feature", "properties": { "OBJECTID": 6, "KOD_OKRES": "40215", "KOD_LAU1": "CZ0206", "NAZ_LAU1": "Mělník", "KOD_KRAJ": "3026", "KOD_CZNUTS3": "CZ020", "NAZ_CZNUTS3": "Středočeský kraj", "SNATKY": 491.0, "ROZVODY": 300.0, "NAROZENI": 1145.0, "ZEMRELI": 1042.0, "PRISTEHOVALI": 2299.0, "VYSTEHOVALI": 1781.0, "POCET_OBYV": 105594.0, "MUZI": 52250.0, "ZENY": 53344.0, "OBYV_0_14": 17336.0, "MUZI_0_14": 8976.0, "ZENY_0_14": 8360.0, "OBYV_15_64": 69951.0, "MUZI_15_64": 35538.0, "ZENY_15_64": 34413.0, "OBYV_65": 18307.0, "MUZI_65": 7736.0, "ZENY_65": 10571.0, "MIRA_NEZAM": 6.97084, "MIRA_NEZAM_MUZI": 7.825123, "MIRA_NEZAM_ZENY": 6.144163, "NADEJE_DOZ_MUZI": 75.093168, "NADEJE_DOZ_ZENY": 80.521415, "SX": -733375.24834100006, "SY": -1015066.52585 }, "geometry": { "type": "Point", "coordinates": [ -733375.2483000010252, -1015066.525800000876188 ] } },
{ "type": "Feature", "properties": { "OBJECTID": 7, "KOD_OKRES": "40223", "KOD_LAU1": "CZ0207", "NAZ_LAU1": "Mladá Boleslav", "KOD_KRAJ": "3026", "KOD_CZNUTS3": "CZ020", "NAZ_CZNUTS3": "Středočeský kraj", "SNATKY": 571.0, "ROZVODY": 320.0, "NAROZENI": 1318.0, "ZEMRELI": 1142.0, "PRISTEHOVALI": 2125.0, "VYSTEHOVALI": 1946.0, "POCET_OBYV": 126286.0, "MUZI": 63451.0, "ZENY": 62835.0, "OBYV_0_14": 20187.0, "MUZI_0_14": 10390.0, "ZENY_0_14": 9797.0, "OBYV_15_64": 84664.0, "MUZI_15_64": 43982.0, "ZENY_15_64": 40682.0, "OBYV_65": 21435.0, "MUZI_65": 9079.0, "ZENY_65": 12356.0, "MIRA_NEZAM": 3.525988, "MIRA_NEZAM_MUZI": 4.083337, "MIRA_NEZAM_ZENY": 3.012539, "NADEJE_DOZ_MUZI": 76.61685, "NADEJE_DOZ_ZENY": 81.54784, "SX": -703915.64200500003, "SY": -1011522.8905400001 }, "geometry": { "type": "Point", "coordinates": [ -703915.642000000923872, -1011522.890500001609325 ] } },
{ "type": "Feature", "properties": { "OBJECTID": 8, "KOD_OKRES": "40231", "KOD_LAU1": "CZ0208", "NAZ_LAU1": "Nymburk", "KOD_KRAJ": "3026", "KOD_CZNUTS3": "CZ020", "NAZ_CZNUTS3": "Středočeský kraj", "SNATKY": 457.0, "ROZVODY": 279.0, "NAROZENI": 1031.0, "ZEMRELI": 1033.0, "PRISTEHOVALI": 2435.0, "VYSTEHOVALI": 1783.0, "POCET_OBYV": 97339.0, "MUZI": 47712.0, "ZENY": 49627.0, "OBYV_0_14": 16676.0, "MUZI_0_14": 8531.0, "ZENY_0_14": 8145.0, "OBYV_15_64": 63708.0, "MUZI_15_64": 32039.0, "ZENY_15_64": 31669.0, "OBYV_65": 16955.0, "MUZI_65": 7142.0, "ZENY_65": 9813.0, "MIRA_NEZAM": 6.777899, "MIRA_NEZAM_MUZI": 7.183826, "MIRA_NEZAM_ZENY": 6.376512, "NADEJE_DOZ_MUZI": 75.43879, "NADEJE_DOZ_ZENY": 80.885819, "SX": -693752.71414599998, "SY": -1036432.18824 }, "geometry": { "type": "Point", "coordinates": [ -693752.714099999517202, -1036432.188200000673532 ] } },
{ "type": "Feature", "properties": { "OBJECTID": 9, "KOD_OKRES": "40240", "KOD_LAU1": "CZ0209", "NAZ_LAU1": "Praha-východ", "KOD_KRAJ": "3026", "KOD_CZNUTS3": "CZ020", "NAZ_CZNUTS3": "Středočeský kraj", "SNATKY": 782.0, "ROZVODY": 527.0, "NAROZENI": 2018.0, "ZEMRELI": 1364.0, "PRISTEHOVALI": 6909.0, "VYSTEHOVALI": 3714.0, "POCET_OBYV": 167851.0, "MUZI": 82696.0, "ZENY": 85155.0, "OBYV_0_14": 34156.0, "MUZI_0_14": 17492.0, "ZENY_0_14": 16664.0, "OBYV_15_64": 109839.0, "MUZI_15_64": 54880.0, "ZENY_15_64": 54959.0, "OBYV_65": 23856.0, "MUZI_65": 10324.0, "ZENY_65": 13532.0, "MIRA_NEZAM": 2.625002, "MIRA_NEZAM_MUZI": 2.913718, "MIRA_NEZAM_ZENY": 2.336639, "NADEJE_DOZ_MUZI": 76.164727, "NADEJE_DOZ_ZENY": 81.324553, "SX": -725072.21504599997, "SY": -1048160.83561 }, "geometry": { "type": "Point", "coordinates": [ -725072.214999999850988, -1048160.83559999987483 ] } },
{ "type": "Feature", "properties": { "OBJECTID": 10, "KOD_OKRES": "40258", "KOD_LAU1": "CZ020A", "NAZ_LAU1": "Praha-západ", "KOD_KRAJ": "3026", "KOD_CZNUTS3": "CZ020", "NAZ_CZNUTS3": "Středočeský kraj", "SNATKY": 610.0, "ROZVODY": 393.0, "NAROZENI": 1651.0, "ZEMRELI": 1019.0, "PRISTEHOVALI": 5960.0, "VYSTEHOVALI": 3420.0, "POCET_OBYV": 137523.0, "MUZI": 67534.0, "ZENY": 69989.0, "OBYV_0_14": 27972.0, "MUZI_0_14": 14415.0, "ZENY_0_14": 13557.0, "OBYV_15_64": 89539.0, "MUZI_15_64": 44282.0, "ZENY_15_64": 45257.0, "OBYV_65": 20012.0, "MUZI_65": 8837.0, "ZENY_65": 11175.0, "MIRA_NEZAM": 3.736271, "MIRA_NEZAM_MUZI": 3.995228, "MIRA_NEZAM_ZENY": 3.473048, "NADEJE_DOZ_MUZI": 76.806441, "NADEJE_DOZ_ZENY": 82.20996, "SX": -750258.249128, "SY": -1055074.04645 }, "geometry": { "type": "Point", "coordinates": [ -750258.249099999666214, -1055074.046399999409914 ] } },
{ "type": "Feature", "properties": { "OBJECTID": 11, "KOD_OKRES": "40266", "KOD_LAU1": "CZ020B", "NAZ_LAU1": "Příbram", "KOD_KRAJ": "3026", "KOD_CZNUTS3": "CZ020", "NAZ_CZNUTS3": "Středočeský kraj", "SNATKY": 497.0, "ROZVODY": 276.0, "NAROZENI": 1162.0, "ZEMRELI": 1231.0, "PRISTEHOVALI": 1488.0, "VYSTEHOVALI": 1297.0, "POCET_OBYV": 114206.0, "MUZI": 56354.0, "ZENY": 57852.0, "OBYV_0_14": 17229.0, "MUZI_0_14": 8841.0, "ZENY_0_14": 8388.0, "OBYV_15_64": 75850.0, "MUZI_15_64": 38641.0, "ZENY_15_64": 37209.0, "OBYV_65": 21127.0, "MUZI_65": 8872.0, "ZENY_65": 12255.0, "MIRA_NEZAM": 7.77939, "MIRA_NEZAM_MUZI": 7.583333, "MIRA_NEZAM_ZENY": 7.968386, "NADEJE_DOZ_MUZI": 75.403288, "NADEJE_DOZ_ZENY": 80.624122, "SX": -768585.91159699997, "SY": -1087144.2612600001 }, "geometry": { "type": "Point", "coordinates": [ -768585.91160000115633, -1087144.261300001293421 ] } },
{ "type": "Feature", "properties": { "OBJECTID": 12, "KOD_OKRES": "40274", "KOD_LAU1": "CZ020C", "NAZ_LAU1": "Rakovník", "KOD_KRAJ": "3026", "KOD_CZNUTS3": "CZ020", "NAZ_CZNUTS3": "Středočeský kraj", "SNATKY": 223.0, "ROZVODY": 175.0, "NAROZENI": 591.0, "ZEMRELI": 614.0, "PRISTEHOVALI": 972.0, "VYSTEHOVALI": 1080.0, "POCET_OBYV": 55258.0, "MUZI": 27510.0, "ZENY": 27748.0, "OBYV_0_14": 8353.0, "MUZI_0_14": 4329.0, "ZENY_0_14": 4024.0, "OBYV_15_64": 36698.0, "MUZI_15_64": 18840.0, "ZENY_15_64": 17858.0, "OBYV_65": 10207.0, "MUZI_65": 4341.0, "ZENY_65": 5866.0, "MIRA_NEZAM": 5.780958, "MIRA_NEZAM_MUZI": 6.484375, "MIRA_NEZAM_ZENY": 5.11672, "NADEJE_DOZ_MUZI": 74.884948, "NADEJE_DOZ_ZENY": 80.516165, "SX": -792274.35297400004, "SY": -1034924.0453699999 }, "geometry": { "type": "Point", "coordinates": [ -792274.353000000119209, -1034924.045400001108646 ] } },
{ "type": "Feature", "properties": { "OBJECTID": 13, "KOD_OKRES": "40282", "KOD_LAU1": "CZ0311", "NAZ_LAU1": "České Budějovice", "KOD_KRAJ": "3034", "KOD_CZNUTS3": "CZ031", "NAZ_CZNUTS3": "Jihočeský kraj", "SNATKY": 926.0, "ROZVODY": 526.0, "NAROZENI": 2134.0, "ZEMRELI": 1934.0, "PRISTEHOVALI": 2695.0, "VYSTEHOVALI": 1912.0, "POCET_OBYV": 190844.0, "MUZI": 93320.0, "ZENY": 97524.0, "OBYV_0_14": 30194.0, "MUZI_0_14": 15506.0, "ZENY_0_14": 14688.0, "OBYV_15_64": 126748.0, "MUZI_15_64": 63486.0, "ZENY_15_64": 63262.0, "OBYV_65": 33902.0, "MUZI_65": 14328.0, "ZENY_65": 19574.0, "MIRA_NEZAM": 4.042228, "MIRA_NEZAM_MUZI": 4.103679, "MIRA_NEZAM_ZENY": 3.980957, "NADEJE_DOZ_MUZI": 75.996068, "NADEJE_DOZ_ZENY": 81.411733, "SX": -751480.34151599999, "SY": -1164157.9363599999 }, "geometry": { "type": "Point", "coordinates": [ -751480.341499999165535, -1164157.9364 ] } },
{ "type": "Feature", "properties": { "OBJECTID": 14, "KOD_OKRES": "40291", "KOD_LAU1": "CZ0312", "NAZ_LAU1": "Český Krumlov", "KOD_KRAJ": "3034", "KOD_CZNUTS3": "CZ031", "NAZ_CZNUTS3": "Jihočeský kraj", "SNATKY": 293.0, "ROZVODY": 160.0, "NAROZENI": 669.0, "ZEMRELI": 592.0, "PRISTEHOVALI": 874.0, "VYSTEHOVALI": 935.0, "POCET_OBYV": 61126.0, "MUZI": 30695.0, "ZENY": 30431.0, "OBYV_0_14": 9985.0, "MUZI_0_14": 5138.0, "ZENY_0_14": 4847.0, "OBYV_15_64": 41165.0, "MUZI_15_64": 21155.0, "ZENY_15_64": 20010.0, "OBYV_65": 9976.0, "MUZI_65": 4402.0, "ZENY_65": 5574.0, "MIRA_NEZAM": 7.403904, "MIRA_NEZAM_MUZI": 7.867856, "MIRA_NEZAM_ZENY": 6.963999, "NADEJE_DOZ_MUZI": 74.808068, "NADEJE_DOZ_ZENY": 80.05006, "SX": -772149.41618099995, "SY": -1189692.72034 }, "geometry": { "type": "Point", "coordinates": [ -772149.416200000792742, -1189692.720300000160933 ] } },
{ "type": "Feature", "properties": { "OBJECTID": 15, "KOD_OKRES": "40304", "KOD_LAU1": "CZ0313", "NAZ_LAU1": "Jindřichův Hradec", "KOD_KRAJ": "3034", "KOD_CZNUTS3": "CZ031", "NAZ_CZNUTS3": "Jihočeský kraj", "SNATKY": 341.0, "ROZVODY": 206.0, "NAROZENI": 883.0, "ZEMRELI": 1062.0, "PRISTEHOVALI": 981.0, "VYSTEHOVALI": 1221.0, "POCET_OBYV": 91359.0, "MUZI": 45033.0, "ZENY": 46326.0, "OBYV_0_14": 13505.0, "MUZI_0_14": 6855.0, "ZENY_0_14": 6650.0, "OBYV_15_64": 60264.0, "MUZI_15_64": 30704.0, "ZENY_15_64": 29560.0, "OBYV_65": 17590.0, "MUZI_65": 7474.0, "ZENY_65": 10116.0, "MIRA_NEZAM": 4.713237, "MIRA_NEZAM_MUZI": 4.699976, "MIRA_NEZAM_ZENY": 4.726021, "NADEJE_DOZ_MUZI": 75.49836, "NADEJE_DOZ_ZENY": 81.254031, "SX": -711000.86881200003, "SY": -1161247.7538900001 }, "geometry": { "type": "Point", "coordinates": [ -711000.86879999935627, -1161247.753899998962879 ] } },
{ "type": "Feature", "properties": { "OBJECTID": 16, "KOD_OKRES": "40312", "KOD_LAU1": "CZ0314", "NAZ_LAU1": "Písek", "KOD_KRAJ": "3034", "KOD_CZNUTS3": "CZ031", "NAZ_CZNUTS3": "Jihočeský kraj", "SNATKY": 289.0, "ROZVODY": 144.0, "NAROZENI": 696.0, "ZEMRELI": 809.0, "PRISTEHOVALI": 1091.0, "VYSTEHOVALI": 871.0, "POCET_OBYV": 70741.0, "MUZI": 34845.0, "ZENY": 35896.0, "OBYV_0_14": 10427.0, "MUZI_0_14": 5363.0, "ZENY_0_14": 5064.0, "OBYV_15_64": 46049.0, "MUZI_15_64": 23410.0, "ZENY_15_64": 22639.0, "OBYV_65": 14265.0, "MUZI_65": 6072.0, "ZENY_65": 8193.0, "MIRA_NEZAM": 4.287672, "MIRA_NEZAM_MUZI": 4.362832, "MIRA_NEZAM_ZENY": 4.214986, "NADEJE_DOZ_MUZI": 75.707152, "NADEJE_DOZ_ZENY": 81.925866, "SX": -768308.24935699999, "SY": -1118065.44826 }, "geometry": { "type": "Point", "coordinates": [ -768308.249400001019239, -1118065.448300000280142 ] } },
{ "type": "Feature", "properties": { "OBJECTID": 17, "KOD_OKRES": "40321", "KOD_LAU1": "CZ0315", "NAZ_LAU1": "Prachatice", "KOD_KRAJ": "3034", "KOD_CZNUTS3": "CZ031", "NAZ_CZNUTS3": "Jihočeský kraj", "SNATKY": 263.0, "ROZVODY": 132.0, "NAROZENI": 526.0, "ZEMRELI": 533.0, "PRISTEHOVALI": 736.0, "VYSTEHOVALI": 817.0, "POCET_OBYV": 50712.0, "MUZI": 25390.0, "ZENY": 25322.0, "OBYV_0_14": 7823.0, "MUZI_0_14": 4032.0, "ZENY_0_14": 3791.0, "OBYV_15_64": 34001.0, "MUZI_15_64": 17523.0, "ZENY_15_64": 16478.0, "OBYV_65": 8888.0, "MUZI_65": 3835.0, "ZENY_65": 5053.0, "MIRA_NEZAM": 4.408312, "MIRA_NEZAM_MUZI": 3.676426, "MIRA_NEZAM_ZENY": 5.100817, "NADEJE_DOZ_MUZI": 74.775142, "NADEJE_DOZ_ZENY": 80.097445, "SX": -798321.65498600004, "SY": -1158648.7223100001 }, "geometry": { "type": "Point", "coordinates": [ -798321.655000001192093, -1158648.722300000488758 ] } },
{ "type": "Feature", "properties": { "OBJECTID": 18, "KOD_OKRES": "40339", "KOD_LAU1": "CZ0316", "NAZ_LAU1": "Strakonice", "KOD_KRAJ": "3034", "KOD_CZNUTS3": "CZ031", "NAZ_CZNUTS3": "Jihočeský kraj", "SNATKY": 301.0, "ROZVODY": 158.0, "NAROZENI": 713.0, "ZEMRELI": 822.0, "PRISTEHOVALI": 1013.0, "VYSTEHOVALI": 874.0, "POCET_OBYV": 70683.0, "MUZI": 34948.0, "ZENY": 35735.0, "OBYV_0_14": 10697.0, "MUZI_0_14": 5516.0, "ZENY_0_14": 5181.0, "OBYV_15_64": 46649.0, "MUZI_15_64": 23814.0, "ZENY_15_64": 22835.0, "OBYV_65": 13337.0, "MUZI_65": 5618.0, "ZENY_65": 7719.0, "MIRA_NEZAM": 5.838869, "MIRA_NEZAM_MUZI": 5.817975, "MIRA_NEZAM_ZENY": 5.8589, "NADEJE_DOZ_MUZI": 74.645276, "NADEJE_DOZ_ZENY": 80.645878, "SX": -791167.94962700002, "SY": -1127436.27593 }, "geometry": { "type": "Point", "coordinates": [ -791167.949599999934435, -1127436.27589999884367 ] } },
{ "type": "Feature", "properties": { "OBJECTID": 19, "KOD_OKRES": "40347", "KOD_LAU1": "CZ0317", "NAZ_LAU1": "Tábor", "KOD_KRAJ": "3034", "KOD_CZNUTS3": "CZ031", "NAZ_CZNUTS3": "Jihočeský kraj", "SNATKY": 474.0, "ROZVODY": 257.0, "NAROZENI": 979.0, "ZEMRELI": 1181.0, "PRISTEHOVALI": 1183.0, "VYSTEHOVALI": 1076.0, "POCET_OBYV": 102369.0, "MUZI": 50216.0, "ZENY": 52153.0, "OBYV_0_14": 15336.0, "MUZI_0_14": 7804.0, "ZENY_0_14": 7532.0, "OBYV_15_64": 66993.0, "MUZI_15_64": 33924.0, "ZENY_15_64": 33069.0, "OBYV_65": 20040.0, "MUZI_65": 8488.0, "ZENY_65": 11552.0, "MIRA_NEZAM": 6.197922, "MIRA_NEZAM_MUZI": 6.426091, "MIRA_NEZAM_ZENY": 5.975509, "NADEJE_DOZ_MUZI": 75.424233, "NADEJE_DOZ_ZENY": 81.40004, "SX": -734437.06968099996, "SY": -1124015.4838099999 }, "geometry": { "type": "Point", "coordinates": [ -734437.069699998944998, -1124015.483800001442432 ] } },
{ "type": "Feature", "properties": { "OBJECTID": 20, "KOD_OKRES": "40355", "KOD_LAU1": "CZ0321", "NAZ_LAU1": "Domažlice", "KOD_KRAJ": "3042", "KOD_CZNUTS3": "CZ032", "NAZ_CZNUTS3": "Plzeňský kraj", "SNATKY": 311.0, "ROZVODY": 149.0, "NAROZENI": 650.0, "ZEMRELI": 637.0, "PRISTEHOVALI": 934.0, "VYSTEHOVALI": 698.0, "POCET_OBYV": 61265.0, "MUZI": 30493.0, "ZENY": 30772.0, "OBYV_0_14": 9548.0, "MUZI_0_14": 4828.0, "ZENY_0_14": 4720.0, "OBYV_15_64": 40703.0, "MUZI_15_64": 20892.0, "ZENY_15_64": 19811.0, "OBYV_65": 11014.0, "MUZI_65": 4773.0, "ZENY_65": 6241.0, "MIRA_NEZAM": 5.298307, "MIRA_NEZAM_MUZI": 5.71559, "MIRA_NEZAM_ZENY": 4.903888, "NADEJE_DOZ_MUZI": 75.372187, "NADEJE_DOZ_ZENY": 81.592814, "SX": -860381.21111200005, "SY": -1093091.06388 }, "geometry": { "type": "Point", "coordinates": [ -860381.211100000888109, -1093091.063900001347065 ] } },
{ "type": "Feature", "properties": { "OBJECTID": 21, "KOD_OKRES": "40363", "KOD_LAU1": "CZ0322", "NAZ_LAU1": "Klatovy", "KOD_KRAJ": "3042", "KOD_CZNUTS3": "CZ032", "NAZ_CZNUTS3": "Plzeňský kraj", "SNATKY": 367.0, "ROZVODY": 244.0, "NAROZENI": 791.0, "ZEMRELI": 1055.0, "PRISTEHOVALI": 1052.0, "VYSTEHOVALI": 1030.0, "POCET_OBYV": 86617.0, "MUZI": 42865.0, "ZENY": 43752.0, "OBYV_0_14": 12683.0, "MUZI_0_14": 6481.0, "ZENY_0_14": 6202.0, "OBYV_15_64": 56878.0, "MUZI_15_64": 29036.0, "ZENY_15_64": 27842.0, "OBYV_65": 17056.0, "MUZI_65": 7348.0, "ZENY_65": 9708.0, "MIRA_NEZAM": 4.922926, "MIRA_NEZAM_MUZI": 4.623883, "MIRA_NEZAM_ZENY": 5.209587, "NADEJE_DOZ_MUZI": 75.123318, "NADEJE_DOZ_ZENY": 81.099571, "SX": -827939.03561200004, "SY": -1122276.09874 }, "geometry": { "type": "Point", "coordinates": [ -827939.035599999129772, -1122276.098700001835823 ] } },
{ "type": "Feature", "properties": { "OBJECTID": 22, "KOD_OKRES": "40371", "KOD_LAU1": "CZ0323", "NAZ_LAU1": "Plzeň-město", "KOD_KRAJ": "3042", "KOD_CZNUTS3": "CZ032", "NAZ_CZNUTS3": "Plzeňský kraj", "SNATKY": 887.0, "ROZVODY": 496.0, "NAROZENI": 2024.0, "ZEMRELI": 2081.0, "PRISTEHOVALI": 4345.0, "VYSTEHOVALI": 3343.0, "POCET_OBYV": 188190.0, "MUZI": 91686.0, "ZENY": 96504.0, "OBYV_0_14": 27481.0, "MUZI_0_14": 13912.0, "ZENY_0_14": 13569.0, "OBYV_15_64": 123229.0, "MUZI_15_64": 62051.0, "ZENY_15_64": 61178.0, "OBYV_65": 37480.0, "MUZI_65": 15723.0, "ZENY_65": 21757.0, "MIRA_NEZAM": 4.314163, "MIRA_NEZAM_MUZI": 4.822576, "MIRA_NEZAM_ZENY": 3.812819, "NADEJE_DOZ_MUZI": 76.654415, "NADEJE_DOZ_ZENY": 81.731908, "SX": -819208.43432300002, "SY": -1073157.1185300001 }, "geometry": { "type": "Point", "coordinates": [ -819208.434300001710653, -1073157.118500001728535 ] } },
{ "type": "Feature", "properties": { "OBJECTID": 23, "KOD_OKRES": "40380", "KOD_LAU1": "CZ0324", "NAZ_LAU1": "Plzeň-jih", "KOD_KRAJ": "3042", "KOD_CZNUTS3": "CZ032", "NAZ_CZNUTS3": "Plzeňský kraj", "SNATKY": 264.0, "ROZVODY": 154.0, "NAROZENI": 564.0, "ZEMRELI": 644.0, "PRISTEHOVALI": 1199.0, "VYSTEHOVALI": 1083.0, "POCET_OBYV": 62262.0, "MUZI": 31503.0, "ZENY": 30759.0, "OBYV_0_14": 9330.0, "MUZI_0_14": 4799.0, "ZENY_0_14": 4531.0, "OBYV_15_64": 41292.0, "MUZI_15_64": 21540.0, "ZENY_15_64": 19752.0, "OBYV_65": 11640.0, "MUZI_65": 5164.0, "ZENY_65": 6476.0, "MIRA_NEZAM": 4.083412, "MIRA_NEZAM_MUZI": 4.520805, "MIRA_NEZAM_ZENY": 3.683087, "NADEJE_DOZ_MUZI": 75.120696, "NADEJE_DOZ_ZENY": 80.347452, "SX": -819855.91918600001, "SY": -1090619.24012 }, "geometry": { "type": "Point", "coordinates": [ -819855.919199999421835, -1090619.2401 ] } },
{ "type": "Feature", "properties": { "OBJECTID": 24, "KOD_OKRES": "40398", "KOD_LAU1": "CZ0325", "NAZ_LAU1": "Plzeň-sever", "KOD_KRAJ": "3042", "KOD_CZNUTS3": "CZ032", "NAZ_CZNUTS3": "Plzeňský kraj", "SNATKY": 338.0, "ROZVODY": 173.0, "NAROZENI": 828.0, "ZEMRELI": 769.0, "PRISTEHOVALI": 1617.0, "VYSTEHOVALI": 1220.0, "POCET_OBYV": 77478.0, "MUZI": 38694.0, "ZENY": 38784.0, "OBYV_0_14": 12276.0, "MUZI_0_14": 6317.0, "ZENY_0_14": 5959.0, "OBYV_15_64": 51734.0, "MUZI_15_64": 26385.0, "ZENY_15_64": 25349.0, "OBYV_65": 13468.0, "MUZI_65": 5992.0, "ZENY_65": 7476.0, "MIRA_NEZAM": 4.298089, "MIRA_NEZAM_MUZI": 4.638278, "MIRA_NEZAM_ZENY": 3.970252, "NADEJE_DOZ_MUZI": 76.342726, "NADEJE_DOZ_ZENY": 80.498692, "SX": -826581.35809800006, "SY": -1052340.1582500001 }, "geometry": { "type": "Point", "coordinates": [ -826581.3581000007689, -1052340.15819999948144 ] } },
{ "type": "Feature", "properties": { "OBJECTID": 25, "KOD_OKRES": "40401", "KOD_LAU1": "CZ0326", "NAZ_LAU1": "Rokycany", "KOD_KRAJ": "3042", "KOD_CZNUTS3": "CZ032", "NAZ_CZNUTS3": "Plzeňský kraj", "SNATKY": 211.0, "ROZVODY": 109.0, "NAROZENI": 472.0, "ZEMRELI": 578.0, "PRISTEHOVALI": 800.0, "VYSTEHOVALI": 614.0, "POCET_OBYV": 47967.0, "MUZI": 23916.0, "ZENY": 24051.0, "OBYV_0_14": 7044.0, "MUZI_0_14": 3700.0, "ZENY_0_14": 3344.0, "OBYV_15_64": 31744.0, "MUZI_15_64": 16249.0, "ZENY_15_64": 15495.0, "OBYV_65": 9179.0, "MUZI_65": 3967.0, "ZENY_65": 5212.0, "MIRA_NEZAM": 3.869686, "MIRA_NEZAM_MUZI": 4.329844, "MIRA_NEZAM_ZENY": 3.431071, "NADEJE_DOZ_MUZI": 74.88767, "NADEJE_DOZ_ZENY": 80.150295, "SX": -800430.09656199999, "SY": -1067093.13487 }, "geometry": { "type": "Point", "coordinates": [ -800430.096599999815226, -1067093.1349 ] } },
{ "type": "Feature", "properties": { "OBJECTID": 26, "KOD_OKRES": "40410", "KOD_LAU1": "CZ0327", "NAZ_LAU1": "Tachov", "KOD_KRAJ": "3042", "KOD_CZNUTS3": "CZ032", "NAZ_CZNUTS3": "Plzeňský kraj", "SNATKY": 260.0, "ROZVODY": 137.0, "NAROZENI": 532.0, "ZEMRELI": 543.0, "PRISTEHOVALI": 834.0, "VYSTEHOVALI": 854.0, "POCET_OBYV": 52837.0, "MUZI": 26490.0, "ZENY": 26347.0, "OBYV_0_14": 8036.0, "MUZI_0_14": 4043.0, "ZENY_0_14": 3993.0, "OBYV_15_64": 36354.0, "MUZI_15_64": 18783.0, "ZENY_15_64": 17571.0, "OBYV_65": 8447.0, "MUZI_65": 3664.0, "ZENY_65": 4783.0, "MIRA_NEZAM": 6.104444, "MIRA_NEZAM_MUZI": 5.842722, "MIRA_NEZAM_ZENY": 6.349881, "NADEJE_DOZ_MUZI": 74.00228, "NADEJE_DOZ_ZENY": 80.038834, "SX": -865607.36669199995, "SY": -1060630.4675499999 }, "geometry": { "type": "Point", "coordinates": [ -865607.366700001060963, -1060630.467500001192093 ] } },
{ "type": "Feature", "properties": { "OBJECTID": 27, "KOD_OKRES": "40428", "KOD_LAU1": "CZ0411", "NAZ_LAU1": "Cheb", "KOD_KRAJ": "3051", "KOD_CZNUTS3": "CZ041", "NAZ_CZNUTS3": "Karlovarský kraj", "SNATKY": 422.0, "ROZVODY": 239.0, "NAROZENI": 855.0, "ZEMRELI": 945.0, "PRISTEHOVALI": 1503.0, "VYSTEHOVALI": 1581.0, "POCET_OBYV": 91851.0, "MUZI": 45156.0, "ZENY": 46695.0, "OBYV_0_14": 14171.0, "MUZI_0_14": 7408.0, "ZENY_0_14": 6763.0, "OBYV_15_64": 61256.0, "MUZI_15_64": 30867.0, "ZENY_15_64": 30389.0, "OBYV_65": 16424.0, "MUZI_65": 6881.0, "ZENY_65": 9543.0, "MIRA_NEZAM": 5.499594, "MIRA_NEZAM_MUZI": 5.35036, "MIRA_NEZAM_ZENY": 5.646566, "NADEJE_DOZ_MUZI": 74.440871, "NADEJE_DOZ_ZENY": 80.024512, "SX": -878666.85854000004, "SY": -1023464.05274 }, "geometry": { "type": "Point", "coordinates": [ -878666.858500000089407, -1023464.052700001746416 ] } },
{ "type": "Feature", "properties": { "OBJECTID": 28, "KOD_OKRES": "40436", "KOD_LAU1": "CZ0412", "NAZ_LAU1": "Karlovy Vary", "KOD_KRAJ": "3051", "KOD_CZNUTS3": "CZ041", "NAZ_CZNUTS3": "Karlovarský kraj", "SNATKY": 503.0, "ROZVODY": 294.0, "NAROZENI": 1020.0, "ZEMRELI": 1275.0, "PRISTEHOVALI": 1610.0, "VYSTEHOVALI": 2007.0, "POCET_OBYV": 116364.0, "MUZI": 57252.0, "ZENY": 59112.0, "OBYV_0_14": 16580.0, "MUZI_0_14": 8422.0, "ZENY_0_14": 8158.0, "OBYV_15_64": 77517.0, "MUZI_15_64": 39539.0, "ZENY_15_64": 37978.0, "OBYV_65": 22267.0, "MUZI_65": 9291.0, "ZENY_65": 12976.0, "MIRA_NEZAM": 7.018174, "MIRA_NEZAM_MUZI": 6.713818, "MIRA_NEZAM_ZENY": 7.310147, "NADEJE_DOZ_MUZI": 74.353679, "NADEJE_DOZ_ZENY": 80.855774, "SX": -841915.185176, "SY": -1013725.17681 }, "geometry": { "type": "Point", "coordinates": [ -841915.185199998319149, -1013725.17680000141263 ] } },
{ "type": "Feature", "properties": { "OBJECTID": 29, "KOD_OKRES": "40444", "KOD_LAU1": "CZ0413", "NAZ_LAU1": "Sokolov", "KOD_KRAJ": "3051", "KOD_CZNUTS3": "CZ041", "NAZ_CZNUTS3": "Karlovarský kraj", "SNATKY": 467.0, "ROZVODY": 214.0, "NAROZENI": 856.0, "ZEMRELI": 1048.0, "PRISTEHOVALI": 1001.0, "VYSTEHOVALI": 1454.0, "POCET_OBYV": 89613.0, "MUZI": 44717.0, "ZENY": 44896.0, "OBYV_0_14": 13631.0, "MUZI_0_14": 7087.0, "ZENY_0_14": 6544.0, "OBYV_15_64": 60576.0, "MUZI_15_64": 31075.0, "ZENY_15_64": 29501.0, "OBYV_65": 15406.0, "MUZI_65": 6555.0, "ZENY_65": 8851.0, "MIRA_NEZAM": 8.692871, "MIRA_NEZAM_MUZI": 9.093663, "MIRA_NEZAM_ZENY": 8.31173, "NADEJE_DOZ_MUZI": 73.425869, "NADEJE_DOZ_ZENY": 78.89073, "SX": -867493.78342200001, "SY": -1009804.87855 }, "geometry": { "type": "Point", "coordinates": [ -867493.783399999141693, -1009804.878499999642372 ] } },
{ "type": "Feature", "properties": { "OBJECTID": 30, "KOD_OKRES": "40452", "KOD_LAU1": "CZ0421", "NAZ_LAU1": "Děčín", "KOD_KRAJ": "3069", "KOD_CZNUTS3": "CZ042", "NAZ_CZNUTS3": "Ústecký kraj", "SNATKY": 589.0, "ROZVODY": 299.0, "NAROZENI": 1304.0, "ZEMRELI": 1448.0, "PRISTEHOVALI": 1681.0, "VYSTEHOVALI": 1923.0, "POCET_OBYV": 131313.0, "MUZI": 65015.0, "ZENY": 66298.0, "OBYV_0_14": 21144.0, "MUZI_0_14": 10837.0, "ZENY_0_14": 10307.0, "OBYV_15_64": 85787.0, "MUZI_15_64": 43768.0, "ZENY_15_64": 42019.0, "OBYV_65": 24382.0, "MUZI_65": 10410.0, "ZENY_65": 13972.0, "MIRA_NEZAM": 8.761098, "MIRA_NEZAM_MUZI": 8.770849, "MIRA_NEZAM_ZENY": 8.751735, "NADEJE_DOZ_MUZI": 74.417992, "NADEJE_DOZ_ZENY": 79.858678, "SX": -735617.34361800004, "SY": -958595.54426700005 }, "geometry": { "type": "Point", "coordinates": [ -735617.343600001186132, -958595.544300001114607 ] } },
{ "type": "Feature", "properties": { "OBJECTID": 31, "KOD_OKRES": "40461", "KOD_LAU1": "CZ0422", "NAZ_LAU1": "Chomutov", "KOD_KRAJ": "3069", "KOD_CZNUTS3": "CZ042", "NAZ_CZNUTS3": "Ústecký kraj", "SNATKY": 550.0, "ROZVODY": 317.0, "NAROZENI": 1234.0, "ZEMRELI": 1347.0, "PRISTEHOVALI": 1584.0, "VYSTEHOVALI": 1780.0, "POCET_OBYV": 124335.0, "MUZI": 61908.0, "ZENY": 62427.0, "OBYV_0_14": 19447.0, "MUZI_0_14": 9879.0, "ZENY_0_14": 9568.0, "OBYV_15_64": 84760.0, "MUZI_15_64": 43654.0, "ZENY_15_64": 41106.0, "OBYV_65": 20128.0, "MUZI_65": 8375.0, "ZENY_65": 11753.0, "MIRA_NEZAM": 9.391447, "MIRA_NEZAM_MUZI": 9.96124, "MIRA_NEZAM_ZENY": 8.854927, "NADEJE_DOZ_MUZI": 72.537234, "NADEJE_DOZ_ZENY": 78.83923, "SX": -816585.26140399999, "SY": -993518.85717099998 }, "geometry": { "type": "Point", "coordinates": [ -816585.261399999260902, -993518.857200000435114 ] } },
{ "type": "Feature", "properties": { "OBJECTID": 32, "KOD_OKRES": "40479", "KOD_LAU1": "CZ0423", "NAZ_LAU1": "Litoměřice", "KOD_KRAJ": "3069", "KOD_CZNUTS3": "CZ042", "NAZ_CZNUTS3": "Ústecký kraj", "SNATKY": 481.0, "ROZVODY": 313.0, "NAROZENI": 1255.0, "ZEMRELI": 1410.0, "PRISTEHOVALI": 1818.0, "VYSTEHOVALI": 1467.0, "POCET_OBYV": 119162.0, "MUZI": 59189.0, "ZENY": 59973.0, "OBYV_0_14": 18871.0, "MUZI_0_14": 9752.0, "ZENY_0_14": 9119.0, "OBYV_15_64": 78490.0, "MUZI_15_64": 40252.0, "ZENY_15_64": 38238.0, "OBYV_65": 21801.0, "MUZI_65": 9185.0, "ZENY_65": 12616.0, "MIRA_NEZAM": 7.336627, "MIRA_NEZAM_MUZI": 7.799691, "MIRA_NEZAM_ZENY": 6.896294, "NADEJE_DOZ_MUZI": 73.72488, "NADEJE_DOZ_ZENY": 79.812513, "SX": -753406.23314899998, "SY": -996914.52022800001 }, "geometry": { "type": "Point", "coordinates": [ -753406.2331000007689, -996914.520199999213219 ] } },
{ "type": "Feature", "properties": { "OBJECTID": 33, "KOD_OKRES": "40487", "KOD_LAU1": "CZ0424", "NAZ_LAU1": "Louny", "KOD_KRAJ": "3069", "KOD_CZNUTS3": "CZ042", "NAZ_CZNUTS3": "Ústecký kraj", "SNATKY": 361.0, "ROZVODY": 221.0, "NAROZENI": 901.0, "ZEMRELI": 934.0, "PRISTEHOVALI": 1518.0, "VYSTEHOVALI": 1549.0, "POCET_OBYV": 86399.0, "MUZI": 42776.0, "ZENY": 43623.0, "OBYV_0_14": 13765.0, "MUZI_0_14": 6949.0, "ZENY_0_14": 6816.0, "OBYV_15_64": 57605.0, "MUZI_15_64": 29425.0, "ZENY_15_64": 28180.0, "OBYV_65": 15029.0, "MUZI_65": 6402.0, "ZENY_65": 8627.0, "MIRA_NEZAM": 7.979321, "MIRA_NEZAM_MUZI": 7.996027, "MIRA_NEZAM_ZENY": 7.963438, "NADEJE_DOZ_MUZI": 73.120224, "NADEJE_DOZ_ZENY": 79.544524, "SX": -796031.29978799995, "SY": -1012525.90689 }, "geometry": { "type": "Point", "coordinates": [ -796031.299800001084805, -1012525.906899999827147 ] } },
{ "type": "Feature", "properties": { "OBJECTID": 34, "KOD_OKRES": "40495", "KOD_LAU1": "CZ0425", "NAZ_LAU1": "Most", "KOD_KRAJ": "3069", "KOD_CZNUTS3": "CZ042", "NAZ_CZNUTS3": "Ústecký kraj", "SNATKY": 512.0, "ROZVODY": 273.0, "NAROZENI": 1113.0, "ZEMRELI": 1318.0, "PRISTEHOVALI": 1676.0, "VYSTEHOVALI": 1957.0, "POCET_OBYV": 113371.0, "MUZI": 56352.0, "ZENY": 57019.0, "OBYV_0_14": 17485.0, "MUZI_0_14": 9002.0, "ZENY_0_14": 8483.0, "OBYV_15_64": 76212.0, "MUZI_15_64": 39202.0, "ZENY_15_64": 37010.0, "OBYV_65": 19674.0, "MUZI_65": 8148.0, "ZENY_65": 11526.0, "MIRA_NEZAM": 11.099375, "MIRA_NEZAM_MUZI": 12.289422, "MIRA_NEZAM_ZENY": 9.977198, "NADEJE_DOZ_MUZI": 72.931794, "NADEJE_DOZ_ZENY": 78.288086, "SX": -793337.39106599998, "SY": -984035.89268599998 }, "geometry": { "type": "Point", "coordinates": [ -793337.391100000590086, -984035.892700001597404 ] } },
{ "type": "Feature", "properties": { "OBJECTID": 35, "KOD_OKRES": "40509", "KOD_LAU1": "CZ0426", "NAZ_LAU1": "Teplice", "KOD_KRAJ": "3069", "KOD_CZNUTS3": "CZ042", "NAZ_CZNUTS3": "Ústecký kraj", "SNATKY": 530.0, "ROZVODY": 275.0, "NAROZENI": 1219.0, "ZEMRELI": 1511.0, "PRISTEHOVALI": 2105.0, "VYSTEHOVALI": 1930.0, "POCET_OBYV": 128734.0, "MUZI": 64200.0, "ZENY": 64534.0, "OBYV_0_14": 20007.0, "MUZI_0_14": 10390.0, "ZENY_0_14": 9617.0, "OBYV_15_64": 85911.0, "MUZI_15_64": 44244.0, "ZENY_15_64": 41667.0, "OBYV_65": 22816.0, "MUZI_65": 9566.0, "ZENY_65": 13250.0, "MIRA_NEZAM": 7.364323, "MIRA_NEZAM_MUZI": 7.949891, "MIRA_NEZAM_ZENY": 6.812487, "NADEJE_DOZ_MUZI": 72.623806, "NADEJE_DOZ_ZENY": 78.511473, "SX": -778635.29839200003, "SY": -977778.00879600004 }, "geometry": { "type": "Point", "coordinates": [ -778635.29839999973774, -977778.008799999952316 ] } },
{ "type": "Feature", "properties": { "OBJECTID": 36, "KOD_OKRES": "40517", "KOD_LAU1": "CZ0427", "NAZ_LAU1": "Ústí nad Labem", "KOD_KRAJ": "3069", "KOD_CZNUTS3": "CZ042", "NAZ_CZNUTS3": "Ústecký kraj", "SNATKY": 549.0, "ROZVODY": 419.0, "NAROZENI": 1287.0, "ZEMRELI": 1270.0, "PRISTEHOVALI": 1915.0, "VYSTEHOVALI": 1912.0, "POCET_OBYV": 119512.0, "MUZI": 58488.0, "ZENY": 61024.0, "OBYV_0_14": 19494.0, "MUZI_0_14": 9935.0, "ZENY_0_14": 9559.0, "OBYV_15_64": 78382.0, "MUZI_15_64": 39520.0, "ZENY_15_64": 38862.0, "OBYV_65": 21636.0, "MUZI_65": 9033.0, "ZENY_65": 12603.0, "MIRA_NEZAM": 10.387656, "MIRA_NEZAM_MUZI": 10.023424, "MIRA_NEZAM_ZENY": 10.745243, "NADEJE_DOZ_MUZI": 74.22382, "NADEJE_DOZ_ZENY": 79.760651, "SX": -760532.66077199997, "SY": -973402.88733900001 }, "geometry": { "type": "Point", "coordinates": [ -760532.660799998790026, -973402.887299999594688 ] } },
{ "type": "Feature", "properties": { "OBJECTID": 37, "KOD_OKRES": "40525", "KOD_LAU1": "CZ0511", "NAZ_LAU1": "Česká Lípa", "KOD_KRAJ": "3077", "KOD_CZNUTS3": "CZ051", "NAZ_CZNUTS3": "Liberecký kraj", "SNATKY": 465.0, "ROZVODY": 294.0, "NAROZENI": 1054.0, "ZEMRELI": 989.0, "PRISTEHOVALI": 1697.0, "VYSTEHOVALI": 1557.0, "POCET_OBYV": 103021.0, "MUZI": 50780.0, "ZENY": 52241.0, "OBYV_0_14": 16271.0, "MUZI_0_14": 8285.0, "ZENY_0_14": 7986.0, "OBYV_15_64": 69379.0, "MUZI_15_64": 35094.0, "ZENY_15_64": 34285.0, "OBYV_65": 17371.0, "MUZI_65": 7401.0, "ZENY_65": 9970.0, "MIRA_NEZAM": 5.651967, "MIRA_NEZAM_MUZI": 6.337864, "MIRA_NEZAM_ZENY": 4.980734, "NADEJE_DOZ_MUZI": 74.199074, "NADEJE_DOZ_ZENY": 80.94395, "SX": -719996.60463299998, "SY": -982312.48414199997 }, "geometry": { "type": "Point", "coordinates": [ -719996.604600001126528, -982312.484099999070168 ] } },
{ "type": "Feature", "properties": { "OBJECTID": 38, "KOD_OKRES": "40533", "KOD_LAU1": "CZ0512", "NAZ_LAU1": "Jablonec nad Nisou", "KOD_KRAJ": "3077", "KOD_CZNUTS3": "CZ051", "NAZ_CZNUTS3": "Liberecký kraj", "SNATKY": 418.0, "ROZVODY": 240.0, "NAROZENI": 951.0, "ZEMRELI": 946.0, "PRISTEHOVALI": 1326.0, "VYSTEHOVALI": 1484.0, "POCET_OBYV": 89850.0, "MUZI": 43841.0, "ZENY": 46009.0, "OBYV_0_14": 14015.0, "MUZI_0_14": 7271.0, "ZENY_0_14": 6744.0, "OBYV_15_64": 58738.0, "MUZI_15_64": 29464.0, "ZENY_15_64": 29274.0, "OBYV_65": 17097.0, "MUZI_65": 7106.0, "ZENY_65": 9991.0, "MIRA_NEZAM": 5.635451, "MIRA_NEZAM_MUZI": 6.013295, "MIRA_NEZAM_ZENY": 5.261382, "NADEJE_DOZ_MUZI": 75.396299, "NADEJE_DOZ_ZENY": 81.476536, "SX": -675574.05458800006, "SY": -979467.06972100004 }, "geometry": { "type": "Point", "coordinates": [ -675574.05460000038147, -979467.069699998944998 ] } },
{ "type": "Feature", "properties": { "OBJECTID": 39, "KOD_OKRES": "40541", "KOD_LAU1": "CZ0513", "NAZ_LAU1": "Liberec", "KOD_KRAJ": "3077", "KOD_CZNUTS3": "CZ051", "NAZ_CZNUTS3": "Liberecký kraj", "SNATKY": 789.0, "ROZVODY": 515.0, "NAROZENI": 1937.0, "ZEMRELI": 1752.0, "PRISTEHOVALI": 2944.0, "VYSTEHOVALI": 2204.0, "POCET_OBYV": 172681.0, "MUZI": 84592.0, "ZENY": 88089.0, "OBYV_0_14": 28058.0, "MUZI_0_14": 14281.0, "ZENY_0_14": 13777.0, "OBYV_15_64": 113435.0, "MUZI_15_64": 57294.0, "ZENY_15_64": 56141.0, "OBYV_65": 31188.0, "MUZI_65": 13017.0, "ZENY_65": 18171.0, "MIRA_NEZAM": 7.088711, "MIRA_NEZAM_MUZI": 7.663601, "MIRA_NEZAM_ZENY": 6.52433, "NADEJE_DOZ_MUZI": 75.561646, "NADEJE_DOZ_ZENY": 81.046449, "SX": -689489.58713500004, "SY": -969258.13258199999 }, "geometry": { "type": "Point", "coordinates": [ -689489.587099999189377, -969258.132599998265505 ] } },
{ "type": "Feature", "properties": { "OBJECTID": 40, "KOD_OKRES": "40550", "KOD_LAU1": "CZ0514", "NAZ_LAU1": "Semily", "KOD_KRAJ": "3077", "KOD_CZNUTS3": "CZ051", "NAZ_CZNUTS3": "Liberecký kraj", "SNATKY": 359.0, "ROZVODY": 186.0, "NAROZENI": 741.0, "ZEMRELI": 871.0, "PRISTEHOVALI": 994.0, "VYSTEHOVALI": 1053.0, "POCET_OBYV": 74087.0, "MUZI": 36694.0, "ZENY": 37393.0, "OBYV_0_14": 11062.0, "MUZI_0_14": 5696.0, "ZENY_0_14": 5366.0, "OBYV_15_64": 48338.0, "MUZI_15_64": 24772.0, "ZENY_15_64": 23566.0, "OBYV_65": 14687.0, "MUZI_65": 6226.0, "ZENY_65": 8461.0, "MIRA_NEZAM": 6.577835, "MIRA_NEZAM_MUZI": 6.404191, "MIRA_NEZAM_ZENY": 6.74352, "NADEJE_DOZ_MUZI": 76.14048, "NADEJE_DOZ_ZENY": 81.615806, "SX": -666662.45466199995, "SY": -993566.56200899999 }, "geometry": { "type": "Point", "coordinates": [ -666662.454700000584126, -993566.561999998986721 ] } },
{ "type": "Feature", "properties": { "OBJECTID": 41, "KOD_OKRES": "40568", "KOD_LAU1": "CZ0521", "NAZ_LAU1": "Hradec Králové", "KOD_KRAJ": "3085", "KOD_CZNUTS3": "CZ052", "NAZ_CZNUTS3": "Královéhradecký kraj", "SNATKY": 734.0, "ROZVODY": 392.0, "NAROZENI": 1694.0, "ZEMRELI": 1634.0, "PRISTEHOVALI": 2510.0, "VYSTEHOVALI": 2219.0, "POCET_OBYV": 163159.0, "MUZI": 79564.0, "ZENY": 83595.0, "OBYV_0_14": 24433.0, "MUZI_0_14": 12491.0, "ZENY_0_14": 11942.0, "OBYV_15_64": 105777.0, "MUZI_15_64": 53297.0, "ZENY_15_64": 52480.0, "OBYV_65": 32949.0, "MUZI_65": 13776.0, "ZENY_65": 19173.0, "MIRA_NEZAM": 5.799695, "MIRA_NEZAM_MUZI": 5.522701, "MIRA_NEZAM_ZENY": 6.072684, "NADEJE_DOZ_MUZI": 76.841127, "NADEJE_DOZ_ZENY": 82.253772, "SX": -651081.48898300005, "SY": -1038967.96241 }, "geometry": { "type": "Point", "coordinates": [ -651081.489000000059605, -1038967.962400000542402 ] } },
{ "type": "Feature", "properties": { "OBJECTID": 42, "KOD_OKRES": "40576", "KOD_LAU1": "CZ0522", "NAZ_LAU1": "Jičín", "KOD_KRAJ": "3085", "KOD_CZNUTS3": "CZ052", "NAZ_CZNUTS3": "Královéhradecký kraj", "SNATKY": 300.0, "ROZVODY": 189.0, "NAROZENI": 857.0, "ZEMRELI": 897.0, "PRISTEHOVALI": 1156.0, "VYSTEHOVALI": 1001.0, "POCET_OBYV": 79490.0, "MUZI": 39457.0, "ZENY": 40033.0, "OBYV_0_14": 11983.0, "MUZI_0_14": 6237.0, "ZENY_0_14": 5746.0, "OBYV_15_64": 52270.0, "MUZI_15_64": 26853.0, "ZENY_15_64": 25417.0, "OBYV_65": 15237.0, "MUZI_65": 6367.0, "ZENY_65": 8870.0, "MIRA_NEZAM": 4.050899, "MIRA_NEZAM_MUZI": 4.303448, "MIRA_NEZAM_ZENY": 3.812535, "NADEJE_DOZ_MUZI": 75.752115, "NADEJE_DOZ_ZENY": 81.680614, "SX": -668011.07684999995, "SY": -1017035.89553 }, "geometry": { "type": "Point", "coordinates": [ -668011.076799999922514, -1017035.895500000566244 ] } },
{ "type": "Feature", "properties": { "OBJECTID": 43, "KOD_OKRES": "40584", "KOD_LAU1": "CZ0523", "NAZ_LAU1": "Náchod", "KOD_KRAJ": "3085", "KOD_CZNUTS3": "CZ052", "NAZ_CZNUTS3": "Královéhradecký kraj", "SNATKY": 514.0, "ROZVODY": 272.0, "NAROZENI": 1123.0, "ZEMRELI": 1209.0, "PRISTEHOVALI": 1065.0, "VYSTEHOVALI": 1240.0, "POCET_OBYV": 110869.0, "MUZI": 54473.0, "ZENY": 56396.0, "OBYV_0_14": 16999.0, "MUZI_0_14": 8821.0, "ZENY_0_14": 8178.0, "OBYV_15_64": 71942.0, "MUZI_15_64": 36410.0, "ZENY_15_64": 35532.0, "OBYV_65": 21928.0, "MUZI_65": 9242.0, "ZENY_65": 12686.0, "MIRA_NEZAM": 4.996949, "MIRA_NEZAM_MUZI": 4.672976, "MIRA_NEZAM_ZENY": 5.313057, "NADEJE_DOZ_MUZI": 76.24817, "NADEJE_DOZ_ZENY": 81.388928, "SX": -615478.70062200003, "SY": -1015715.78839 }, "geometry": { "type": "Point", "coordinates": [ -615478.700599998235703, -1015715.788400001823902 ] } },
{ "type": "Feature", "properties": { "OBJECTID": 44, "KOD_OKRES": "40592", "KOD_LAU1": "CZ0524", "NAZ_LAU1": "Rychnov nad Kněžnou", "KOD_KRAJ": "3085", "KOD_CZNUTS3": "CZ052", "NAZ_CZNUTS3": "Královéhradecký kraj", "SNATKY": 378.0, "ROZVODY": 206.0, "NAROZENI": 808.0, "ZEMRELI": 862.0, "PRISTEHOVALI": 852.0, "VYSTEHOVALI": 863.0, "POCET_OBYV": 78861.0, "MUZI": 38992.0, "ZENY": 39869.0, "OBYV_0_14": 12305.0, "MUZI_0_14": 6232.0, "ZENY_0_14": 6073.0, "OBYV_15_64": 51774.0, "MUZI_15_64": 26499.0, "ZENY_15_64": 25275.0, "OBYV_65": 14782.0, "MUZI_65": 6261.0, "ZENY_65": 8521.0, "MIRA_NEZAM": 2.879722, "MIRA_NEZAM_MUZI": 3.376377, "MIRA_NEZAM_ZENY": 2.406145, "NADEJE_DOZ_MUZI": 76.142476, "NADEJE_DOZ_ZENY": 81.274147, "SX": -610577.89835699997, "SY": -1046230.11378 }, "geometry": { "type": "Point", "coordinates": [ -610577.898400001227856, -1046230.113800000399351 ] } },
{ "type": "Feature", "properties": { "OBJECTID": 45, "KOD_OKRES": "40606", "KOD_LAU1": "CZ0525", "NAZ_LAU1": "Trutnov", "KOD_KRAJ": "3085", "KOD_CZNUTS3": "CZ052", "NAZ_CZNUTS3": "Královéhradecký kraj", "SNATKY": 539.0, "ROZVODY": 301.0, "NAROZENI": 1100.0, "ZEMRELI": 1234.0, "PRISTEHOVALI": 1281.0, "VYSTEHOVALI": 1456.0, "POCET_OBYV": 119042.0, "MUZI": 58673.0, "ZENY": 60369.0, "OBYV_0_14": 17837.0, "MUZI_0_14": 9136.0, "ZENY_0_14": 8701.0, "OBYV_15_64": 78053.0, "MUZI_15_64": 39913.0, "ZENY_15_64": 38140.0, "OBYV_65": 23152.0, "MUZI_65": 9624.0, "ZENY_65": 13528.0, "MIRA_NEZAM": 5.7637, "MIRA_NEZAM_MUZI": 5.94176, "MIRA_NEZAM_ZENY": 5.593602, "NADEJE_DOZ_MUZI": 75.081627, "NADEJE_DOZ_ZENY": 81.38848, "SX": -637947.42095299996, "SY": -1002448.26587 }, "geometry": { "type": "Point", "coordinates": [ -637947.421000000089407, -1002448.265900000929832 ] } },
{ "type": "Feature", "properties": { "OBJECTID": 46, "KOD_OKRES": "40614", "KOD_LAU1": "CZ0531", "NAZ_LAU1": "Chrudim", "KOD_KRAJ": "3093", "KOD_CZNUTS3": "CZ053", "NAZ_CZNUTS3": "Pardubický kraj", "SNATKY": 487.0, "ROZVODY": 267.0, "NAROZENI": 1055.0, "ZEMRELI": 1156.0, "PRISTEHOVALI": 1213.0, "VYSTEHOVALI": 1315.0, "POCET_OBYV": 103945.0, "MUZI": 51515.0, "ZENY": 52430.0, "OBYV_0_14": 15715.0, "MUZI_0_14": 8168.0, "ZENY_0_14": 7547.0, "OBYV_15_64": 68838.0, "MUZI_15_64": 35209.0, "ZENY_15_64": 33629.0, "OBYV_65": 19392.0, "MUZI_65": 8138.0, "ZENY_65": 11254.0, "MIRA_NEZAM": 5.638537, "MIRA_NEZAM_MUZI": 5.317543, "MIRA_NEZAM_ZENY": 5.946099, "NADEJE_DOZ_MUZI": 74.969612, "NADEJE_DOZ_ZENY": 80.862211, "SX": -644292.58250899997, "SY": -1081329.83029 }, "geometry": { "type": "Point", "coordinates": [ -644292.582499999552965, -1081329.830299999564886 ] } },
{ "type": "Feature", "properties": { "OBJECTID": 47, "KOD_OKRES": "40622", "KOD_LAU1": "CZ0532", "NAZ_LAU1": "Pardubice", "KOD_KRAJ": "3093", "KOD_CZNUTS3": "CZ053", "NAZ_CZNUTS3": "Pardubický kraj", "SNATKY": 755.0, "ROZVODY": 443.0, "NAROZENI": 1794.0, "ZEMRELI": 1775.0, "PRISTEHOVALI": 2709.0, "VYSTEHOVALI": 2140.0, "POCET_OBYV": 169836.0, "MUZI": 83751.0, "ZENY": 86085.0, "OBYV_0_14": 25977.0, "MUZI_0_14": 13443.0, "ZENY_0_14": 12534.0, "OBYV_15_64": 112039.0, "MUZI_15_64": 57036.0, "ZENY_15_64": 55003.0, "OBYV_65": 31820.0, "MUZI_65": 13272.0, "ZENY_65": 18548.0, "MIRA_NEZAM": 4.262831, "MIRA_NEZAM_MUZI": 4.517622, "MIRA_NEZAM_ZENY": 4.017544, "NADEJE_DOZ_MUZI": 76.176396, "NADEJE_DOZ_ZENY": 81.713708, "SX": -648585.74627100001, "SY": -1058501.2402300001 }, "geometry": { "type": "Point", "coordinates": [ -648585.746300000697374, -1058501.240200001746416 ] } },
{ "type": "Feature", "properties": { "OBJECTID": 48, "KOD_OKRES": "40631", "KOD_LAU1": "CZ0533", "NAZ_LAU1": "Svitavy", "KOD_KRAJ": "3093", "KOD_CZNUTS3": "CZ053", "NAZ_CZNUTS3": "Pardubický kraj", "SNATKY": 491.0, "ROZVODY": 248.0, "NAROZENI": 1033.0, "ZEMRELI": 1117.0, "PRISTEHOVALI": 939.0, "VYSTEHOVALI": 1161.0, "POCET_OBYV": 104189.0, "MUZI": 51487.0, "ZENY": 52702.0, "OBYV_0_14": 15932.0, "MUZI_0_14": 8014.0, "ZENY_0_14": 7918.0, "OBYV_15_64": 69130.0, "MUZI_15_64": 35418.0, "ZENY_15_64": 33712.0, "OBYV_65": 19127.0, "MUZI_65": 8055.0, "ZENY_65": 11072.0, "MIRA_NEZAM": 6.764935, "MIRA_NEZAM_MUZI": 6.642077, "MIRA_NEZAM_ZENY": 6.882181, "NADEJE_DOZ_MUZI": 75.018821, "NADEJE_DOZ_ZENY": 81.046718, "SX": -602535.92616399995, "SY": -1098581.6876699999 }, "geometry": { "type": "Point", "coordinates": [ -602535.926199998706579, -1098581.687699999660254 ] } },
{ "type": "Feature", "properties": { "OBJECTID": 49, "KOD_OKRES": "40649", "KOD_LAU1": "CZ0534", "NAZ_LAU1": "Ústí nad Orlicí", "KOD_KRAJ": "3093", "KOD_CZNUTS3": "CZ053", "NAZ_CZNUTS3": "Pardubický kraj", "SNATKY": 649.0, "ROZVODY": 261.0, "NAROZENI": 1420.0, "ZEMRELI": 1392.0, "PRISTEHOVALI": 1147.0, "VYSTEHOVALI": 1477.0, "POCET_OBYV": 138179.0, "MUZI": 68406.0, "ZENY": 69773.0, "OBYV_0_14": 21691.0, "MUZI_0_14": 11141.0, "ZENY_0_14": 10550.0, "OBYV_15_64": 91182.0, "MUZI_15_64": 46493.0, "ZENY_15_64": 44689.0, "OBYV_65": 25306.0, "MUZI_65": 10772.0, "ZENY_65": 14534.0, "MIRA_NEZAM": 4.597399, "MIRA_NEZAM_MUZI": 4.63814, "MIRA_NEZAM_ZENY": 4.558227, "NADEJE_DOZ_MUZI": 75.895954, "NADEJE_DOZ_ZENY": 81.526969, "SX": -598075.75106000004, "SY": -1071385.9028700001 }, "geometry": { "type": "Point", "coordinates": [ -598075.7511, -1071385.902899999171495 ] } },
{ "type": "Feature", "properties": { "OBJECTID": 50, "KOD_OKRES": "40657", "KOD_LAU1": "CZ0631", "NAZ_LAU1": "Havlíčkův Brod", "KOD_KRAJ": "3107", "KOD_CZNUTS3": "CZ063", "NAZ_CZNUTS3": "Kraj Vysočina", "SNATKY": 449.0, "ROZVODY": 216.0, "NAROZENI": 945.0, "ZEMRELI": 1002.0, "PRISTEHOVALI": 962.0, "VYSTEHOVALI": 1141.0, "POCET_OBYV": 94649.0, "MUZI": 47007.0, "ZENY": 47642.0, "OBYV_0_14": 14141.0, "MUZI_0_14": 7214.0, "ZENY_0_14": 6927.0, "OBYV_15_64": 62323.0, "MUZI_15_64": 32102.0, "ZENY_15_64": 30221.0, "OBYV_65": 18185.0, "MUZI_65": 7691.0, "ZENY_65": 10494.0, "MIRA_NEZAM": 5.785216, "MIRA_NEZAM_MUZI": 6.250824, "MIRA_NEZAM_ZENY": 5.346946, "NADEJE_DOZ_MUZI": 76.206484, "NADEJE_DOZ_ZENY": 81.833815, "SX": -668558.77560399997, "SY": -1099622.51575 }, "geometry": { "type": "Point", "coordinates": [ -668558.775600001215935, -1099622.515700001269579 ] } },
{ "type": "Feature", "properties": { "OBJECTID": 51, "KOD_OKRES": "40665", "KOD_LAU1": "CZ0632", "NAZ_LAU1": "Jihlava", "KOD_KRAJ": "3107", "KOD_CZNUTS3": "CZ063", "NAZ_CZNUTS3": "Kraj Vysočina", "SNATKY": 547.0, "ROZVODY": 261.0, "NAROZENI": 1360.0, "ZEMRELI": 1127.0, "PRISTEHOVALI": 1041.0, "VYSTEHOVALI": 1072.0, "POCET_OBYV": 112619.0, "MUZI": 55874.0, "ZENY": 56745.0, "OBYV_0_14": 17845.0, "MUZI_0_14": 9256.0, "ZENY_0_14": 8589.0, "OBYV_15_64": 74445.0, "MUZI_15_64": 38176.0, "ZENY_15_64": 36269.0, "OBYV_65": 20329.0, "MUZI_65": 8442.0, "ZENY_65": 11887.0, "MIRA_NEZAM": 5.737793, "MIRA_NEZAM_MUZI": 5.523248, "MIRA_NEZAM_ZENY": 5.941449, "NADEJE_DOZ_MUZI": 76.322291, "NADEJE_DOZ_ZENY": 82.093696, "SX": -672486.60147300002, "SY": -1137700.52988 }, "geometry": { "type": "Point", "coordinates": [ -672486.601500000804663, -1137700.529899999499321 ] } },
{ "type": "Feature", "properties": { "OBJECTID": 52, "KOD_OKRES": "40673", "KOD_LAU1": "CZ0633", "NAZ_LAU1": "Pelhřimov", "KOD_KRAJ": "3107", "KOD_CZNUTS3": "CZ063", "NAZ_CZNUTS3": "Kraj Vysočina", "SNATKY": 311.0, "ROZVODY": 130.0, "NAROZENI": 710.0, "ZEMRELI": 839.0, "PRISTEHOVALI": 813.0, "VYSTEHOVALI": 684.0, "POCET_OBYV": 72061.0, "MUZI": 35779.0, "ZENY": 36282.0, "OBYV_0_14": 10280.0, "MUZI_0_14": 5263.0, "ZENY_0_14": 5017.0, "OBYV_15_64": 47261.0, "MUZI_15_64": 24426.0, "ZENY_15_64": 22835.0, "OBYV_65": 14520.0, "MUZI_65": 6090.0, "ZENY_65": 8430.0, "MIRA_NEZAM": 4.086432, "MIRA_NEZAM_MUZI": 4.207304, "MIRA_NEZAM_ZENY": 3.972884, "NADEJE_DOZ_MUZI": 75.36161, "NADEJE_DOZ_ZENY": 81.14082, "SX": -699460.53901199996, "SY": -1121856.31608 }, "geometry": { "type": "Point", "coordinates": [ -699460.539000000804663, -1121856.316100001335144 ] } },
{ "type": "Feature", "properties": { "OBJECTID": 53, "KOD_OKRES": "40681", "KOD_LAU1": "CZ0634", "NAZ_LAU1": "Třebíč", "KOD_KRAJ": "3107", "KOD_CZNUTS3": "CZ063", "NAZ_CZNUTS3": "Kraj Vysočina", "SNATKY": 494.0, "ROZVODY": 207.0, "NAROZENI": 1146.0, "ZEMRELI": 1037.0, "PRISTEHOVALI": 858.0, "VYSTEHOVALI": 1170.0, "POCET_OBYV": 111873.0, "MUZI": 55403.0, "ZENY": 56470.0, "OBYV_0_14": 16332.0, "MUZI_0_14": 8305.0, "ZENY_0_14": 8027.0, "OBYV_15_64": 74935.0, "MUZI_15_64": 38407.0, "ZENY_15_64": 36528.0, "OBYV_65": 20606.0, "MUZI_65": 8691.0, "ZENY_65": 11915.0, "MIRA_NEZAM": 8.320376, "MIRA_NEZAM_MUZI": 8.691624, "MIRA_NEZAM_ZENY": 7.966898, "NADEJE_DOZ_MUZI": 76.323845, "NADEJE_DOZ_ZENY": 82.018862, "SX": -650885.43003799999, "SY": -1159859.4051399999 }, "geometry": { "type": "Point", "coordinates": [ -650885.429999999701977, -1159859.405099999159575 ] } },
{ "type": "Feature", "properties": { "OBJECTID": 54, "KOD_OKRES": "40690", "KOD_LAU1": "CZ0635", "NAZ_LAU1": "Žďár nad Sázavou", "KOD_KRAJ": "3107", "KOD_CZNUTS3": "CZ063", "NAZ_CZNUTS3": "Kraj Vysočina", "SNATKY": 532.0, "ROZVODY": 235.0, "NAROZENI": 1188.0, "ZEMRELI": 1173.0, "PRISTEHOVALI": 849.0, "VYSTEHOVALI": 1047.0, "POCET_OBYV": 118273.0, "MUZI": 58901.0, "ZENY": 59372.0, "OBYV_0_14": 18124.0, "MUZI_0_14": 9334.0, "ZENY_0_14": 8790.0, "OBYV_15_64": 78527.0, "MUZI_15_64": 40431.0, "ZENY_15_64": 38096.0, "OBYV_65": 21622.0, "MUZI_65": 9136.0, "ZENY_65": 12486.0, "MIRA_NEZAM": 6.289907, "MIRA_NEZAM_MUZI": 6.270601, "MIRA_NEZAM_ZENY": 6.308106, "NADEJE_DOZ_MUZI": 76.179903, "NADEJE_DOZ_ZENY": 81.888505, "SX": -632937.71474299999, "SY": -1122850.50144 }, "geometry": { "type": "Point", "coordinates": [ -632937.714699998497963, -1122850.501400001347065 ] } },
{ "type": "Feature", "properties": { "OBJECTID": 55, "KOD_OKRES": "40703", "KOD_LAU1": "CZ0641", "NAZ_LAU1": "Blansko", "KOD_KRAJ": "3115", "KOD_CZNUTS3": "CZ064", "NAZ_CZNUTS3": "Jihomoravský kraj", "SNATKY": 489.0, "ROZVODY": 203.0, "NAROZENI": 1125.0, "ZEMRELI": 1118.0, "PRISTEHOVALI": 1379.0, "VYSTEHOVALI": 1185.0, "POCET_OBYV": 108126.0, "MUZI": 53268.0, "ZENY": 54858.0, "OBYV_0_14": 16802.0, "MUZI_0_14": 8590.0, "ZENY_0_14": 8212.0, "OBYV_15_64": 70922.0, "MUZI_15_64": 36166.0, "ZENY_15_64": 34756.0, "OBYV_65": 20402.0, "MUZI_65": 8512.0, "ZENY_65": 11890.0, "MIRA_NEZAM": 5.57248, "MIRA_NEZAM_MUZI": 6.082697, "MIRA_NEZAM_ZENY": 5.083294, "NADEJE_DOZ_MUZI": 75.980189, "NADEJE_DOZ_ZENY": 81.650368, "SX": -593282.62850700004, "SY": -1131088.89579 }, "geometry": { "type": "Point", "coordinates": [ -593282.628499999642372, -1131088.895799998193979 ] } },
{ "type": "Feature", "properties": { "OBJECTID": 56, "KOD_OKRES": "40711", "KOD_LAU1": "CZ0642", "NAZ_LAU1": "Brno-město", "KOD_KRAJ": "3115", "KOD_CZNUTS3": "CZ064", "NAZ_CZNUTS3": "Jihomoravský kraj", "SNATKY": 1846.0, "ROZVODY": 929.0, "NAROZENI": 4405.0, "ZEMRELI": 4053.0, "PRISTEHOVALI": 8934.0, "VYSTEHOVALI": 9698.0, "POCET_OBYV": 377028.0, "MUZI": 181890.0, "ZENY": 195138.0, "OBYV_0_14": 55325.0, "MUZI_0_14": 28230.0, "ZENY_0_14": 27095.0, "OBYV_15_64": 246583.0, "MUZI_15_64": 123423.0, "ZENY_15_64": 123160.0, "OBYV_65": 75120.0, "MUZI_65": 30237.0, "ZENY_65": 44883.0, "MIRA_NEZAM": 7.590087, "MIRA_NEZAM_MUZI": 7.95639, "MIRA_NEZAM_ZENY": 7.224701, "NADEJE_DOZ_MUZI": 76.734993, "NADEJE_DOZ_ZENY": 82.536221, "SX": -599411.94967200002, "SY": -1159315.1560200001 }, "geometry": { "type": "Point", "coordinates": [ -599411.949700001627207, -1159315.155999999493361 ] } },
{ "type": "Feature", "properties": { "OBJECTID": 57, "KOD_OKRES": "40720", "KOD_LAU1": "CZ0643", "NAZ_LAU1": "Brno-venkov", "KOD_KRAJ": "3115", "KOD_CZNUTS3": "CZ064", "NAZ_CZNUTS3": "Jihomoravský kraj", "SNATKY": 993.0, "ROZVODY": 523.0, "NAROZENI": 2533.0, "ZEMRELI": 2115.0, "PRISTEHOVALI": 4889.0, "VYSTEHOVALI": 3145.0, "POCET_OBYV": 215311.0, "MUZI": 106403.0, "ZENY": 108908.0, "OBYV_0_14": 36860.0, "MUZI_0_14": 18867.0, "ZENY_0_14": 17993.0, "OBYV_15_64": 141006.0, "MUZI_15_64": 71773.0, "ZENY_15_64": 69233.0, "OBYV_65": 37445.0, "MUZI_65": 15763.0, "ZENY_65": 21682.0, "MIRA_NEZAM": 5.233078, "MIRA_NEZAM_MUZI": 5.569956, "MIRA_NEZAM_ZENY": 4.907846, "NADEJE_DOZ_MUZI": 76.03415, "NADEJE_DOZ_ZENY": 81.722718, "SX": -606385.60230100004, "SY": -1161678.0593699999 }, "geometry": { "type": "Point", "coordinates": [ -606385.602299999445677, -1161678.059399999678135 ] } },
{ "type": "Feature", "properties": { "OBJECTID": 58, "KOD_OKRES": "40738", "KOD_LAU1": "CZ0644", "NAZ_LAU1": "Břeclav", "KOD_KRAJ": "3115", "KOD_CZNUTS3": "CZ064", "NAZ_CZNUTS3": "Jihomoravský kraj", "SNATKY": 451.0, "ROZVODY": 306.0, "NAROZENI": 1108.0, "ZEMRELI": 1086.0, "PRISTEHOVALI": 1389.0, "VYSTEHOVALI": 1126.0, "POCET_OBYV": 115334.0, "MUZI": 56623.0, "ZENY": 58711.0, "OBYV_0_14": 16865.0, "MUZI_0_14": 8609.0, "ZENY_0_14": 8256.0, "OBYV_15_64": 77872.0, "MUZI_15_64": 39658.0, "ZENY_15_64": 38214.0, "OBYV_65": 20597.0, "MUZI_65": 8356.0, "ZENY_65": 12241.0, "MIRA_NEZAM": 6.461566, "MIRA_NEZAM_MUZI": 6.425987, "MIRA_NEZAM_ZENY": 6.4958, "NADEJE_DOZ_MUZI": 74.651534, "NADEJE_DOZ_ZENY": 81.607101, "SX": -589898.55682000006, "SY": -1199640.6317799999 }, "geometry": { "type": "Point", "coordinates": [ -589898.556800000369549, -1199640.631799999624491 ] } },
{ "type": "Feature", "properties": { "OBJECTID": 59, "KOD_OKRES": "40746", "KOD_LAU1": "CZ0645", "NAZ_LAU1": "Hodonín", "KOD_KRAJ": "3115", "KOD_CZNUTS3": "CZ064", "NAZ_CZNUTS3": "Jihomoravský kraj", "SNATKY": 695.0, "ROZVODY": 299.0, "NAROZENI": 1445.0, "ZEMRELI": 1706.0, "PRISTEHOVALI": 1158.0, "VYSTEHOVALI": 1455.0, "POCET_OBYV": 154873.0, "MUZI": 76382.0, "ZENY": 78491.0, "OBYV_0_14": 21638.0, "MUZI_0_14": 11169.0, "ZENY_0_14": 10469.0, "OBYV_15_64": 104647.0, "MUZI_15_64": 53779.0, "ZENY_15_64": 50868.0, "OBYV_65": 28588.0, "MUZI_65": 11434.0, "ZENY_65": 17154.0, "MIRA_NEZAM": 8.976811, "MIRA_NEZAM_MUZI": 8.519802, "MIRA_NEZAM_ZENY": 9.40902, "NADEJE_DOZ_MUZI": 74.409697, "NADEJE_DOZ_ZENY": 81.794403, "SX": -557808.76033199998, "SY": -1193342.9251399999 }, "geometry": { "type": "Point", "coordinates": [ -557808.760299999266863, -1193342.92509999871254 ] } },
{ "type": "Feature", "properties": { "OBJECTID": 60, "KOD_OKRES": "40754", "KOD_LAU1": "CZ0646", "NAZ_LAU1": "Vyškov", "KOD_KRAJ": "3115", "KOD_CZNUTS3": "CZ064", "NAZ_CZNUTS3": "Jihomoravský kraj", "SNATKY": 397.0, "ROZVODY": 213.0, "NAROZENI": 958.0, "ZEMRELI": 892.0, "PRISTEHOVALI": 1448.0, "VYSTEHOVALI": 1159.0, "POCET_OBYV": 90815.0, "MUZI": 44918.0, "ZENY": 45897.0, "OBYV_0_14": 14265.0, "MUZI_0_14": 7305.0, "ZENY_0_14": 6960.0, "OBYV_15_64": 60593.0, "MUZI_15_64": 31001.0, "ZENY_15_64": 29592.0, "OBYV_65": 15957.0, "MUZI_65": 6612.0, "ZENY_65": 9345.0, "MIRA_NEZAM": 4.722103, "MIRA_NEZAM_MUZI": 4.759324, "MIRA_NEZAM_ZENY": 4.686539, "NADEJE_DOZ_MUZI": 75.239546, "NADEJE_DOZ_ZENY": 81.736508, "SX": -571624.97841900005, "SY": -1158295.6031299999 }, "geometry": { "type": "Point", "coordinates": [ -571624.978399999439716, -1158295.603100001811981 ] } },
{ "type": "Feature", "properties": { "OBJECTID": 61, "KOD_OKRES": "40762", "KOD_LAU1": "CZ0647", "NAZ_LAU1": "Znojmo", "KOD_KRAJ": "3115", "KOD_CZNUTS3": "CZ064", "NAZ_CZNUTS3": "Jihomoravský kraj", "SNATKY": 543.0, "ROZVODY": 297.0, "NAROZENI": 1197.0, "ZEMRELI": 1136.0, "PRISTEHOVALI": 1164.0, "VYSTEHOVALI": 1086.0, "POCET_OBYV": 113538.0, "MUZI": 56052.0, "ZENY": 57486.0, "OBYV_0_14": 17166.0, "MUZI_0_14": 8815.0, "ZENY_0_14": 8351.0, "OBYV_15_64": 76210.0, "MUZI_15_64": 38816.0, "ZENY_15_64": 37394.0, "OBYV_65": 20162.0, "MUZI_65": 8421.0, "ZENY_65": 11741.0, "MIRA_NEZAM": 9.408525, "MIRA_NEZAM_MUZI": 9.666471, "MIRA_NEZAM_ZENY": 9.159971, "NADEJE_DOZ_MUZI": 75.061458, "NADEJE_DOZ_ZENY": 81.464721, "SX": -637996.85431900003, "SY": -1188167.4523199999 }, "geometry": { "type": "Point", "coordinates": [ -637996.854299999773502, -1188167.452300000935793 ] } },
{ "type": "Feature", "properties": { "OBJECTID": 62, "KOD_OKRES": "40771", "KOD_LAU1": "CZ0711", "NAZ_LAU1": "Jeseník", "KOD_KRAJ": "3123", "KOD_CZNUTS3": "CZ071", "NAZ_CZNUTS3": "Olomoucký kraj", "SNATKY": 192.0, "ROZVODY": 73.0, "NAROZENI": 348.0, "ZEMRELI": 450.0, "PRISTEHOVALI": 375.0, "VYSTEHOVALI": 596.0, "POCET_OBYV": 39261.0, "MUZI": 19482.0, "ZENY": 19779.0, "OBYV_0_14": 5508.0, "MUZI_0_14": 2757.0, "ZENY_0_14": 2751.0, "OBYV_15_64": 26334.0, "MUZI_15_64": 13631.0, "ZENY_15_64": 12703.0, "OBYV_65": 7419.0, "MUZI_65": 3094.0, "ZENY_65": 4325.0, "MIRA_NEZAM": 9.474795, "MIRA_NEZAM_MUZI": 8.901013, "MIRA_NEZAM_ZENY": 10.012415, "NADEJE_DOZ_MUZI": 73.989702, "NADEJE_DOZ_ZENY": 80.808241, "SX": -546896.39871700003, "SY": -1045080.14196 }, "geometry": { "type": "Point", "coordinates": [ -546896.398699998855591, -1045080.142000000923872 ] } },
{ "type": "Feature", "properties": { "OBJECTID": 63, "KOD_OKRES": "40789", "KOD_LAU1": "CZ0712", "NAZ_LAU1": "Olomouc", "KOD_KRAJ": "3123", "KOD_CZNUTS3": "CZ071", "NAZ_CZNUTS3": "Olomoucký kraj", "SNATKY": 1110.0, "ROZVODY": 562.0, "NAROZENI": 2588.0, "ZEMRELI": 2351.0, "PRISTEHOVALI": 2757.0, "VYSTEHOVALI": 2431.0, "POCET_OBYV": 233755.0, "MUZI": 113674.0, "ZENY": 120081.0, "OBYV_0_14": 36658.0, "MUZI_0_14": 18780.0, "ZENY_0_14": 17878.0, "OBYV_15_64": 154646.0, "MUZI_15_64": 77653.0, "ZENY_15_64": 76993.0, "OBYV_65": 42451.0, "MUZI_65": 17241.0, "ZENY_65": 25210.0, "MIRA_NEZAM": 6.963922, "MIRA_NEZAM_MUZI": 6.641601, "MIRA_NEZAM_ZENY": 7.282935, "NADEJE_DOZ_MUZI": 75.45843, "NADEJE_DOZ_ZENY": 81.825553, "SX": -543919.755137, "SY": -1112214.50985 }, "geometry": { "type": "Point", "coordinates": [ -543919.755100000649691, -1112214.509799998253584 ] } },
{ "type": "Feature", "properties": { "OBJECTID": 64, "KOD_OKRES": "40797", "KOD_LAU1": "CZ0713", "NAZ_LAU1": "Prostějov", "KOD_KRAJ": "3123", "KOD_CZNUTS3": "CZ071", "NAZ_CZNUTS3": "Olomoucký kraj", "SNATKY": 498.0, "ROZVODY": 271.0, "NAROZENI": 1112.0, "ZEMRELI": 1307.0, "PRISTEHOVALI": 1084.0, "VYSTEHOVALI": 1133.0, "POCET_OBYV": 108793.0, "MUZI": 53021.0, "ZENY": 55772.0, "OBYV_0_14": 16604.0, "MUZI_0_14": 8427.0, "ZENY_0_14": 8177.0, "OBYV_15_64": 71446.0, "MUZI_15_64": 36129.0, "ZENY_15_64": 35317.0, "OBYV_65": 20743.0, "MUZI_65": 8465.0, "ZENY_65": 12278.0, "MIRA_NEZAM": 4.884632, "MIRA_NEZAM_MUZI": 5.314666, "MIRA_NEZAM_ZENY": 4.464113, "NADEJE_DOZ_MUZI": 74.464153, "NADEJE_DOZ_ZENY": 81.202499, "SX": -565287.64489600004, "SY": -1132016.7030799999 }, "geometry": { "type": "Point", "coordinates": [ -565287.644900001585484, -1132016.703099999576807 ] } },
{ "type": "Feature", "properties": { "OBJECTID": 65, "KOD_OKRES": "40801", "KOD_LAU1": "CZ0714", "NAZ_LAU1": "Přerov", "KOD_KRAJ": "3123", "KOD_CZNUTS3": "CZ071", "NAZ_CZNUTS3": "Olomoucký kraj", "SNATKY": 554.0, "ROZVODY": 302.0, "NAROZENI": 1200.0, "ZEMRELI": 1516.0, "PRISTEHOVALI": 1319.0, "VYSTEHOVALI": 1525.0, "POCET_OBYV": 131124.0, "MUZI": 64275.0, "ZENY": 66849.0, "OBYV_0_14": 18986.0, "MUZI_0_14": 9772.0, "ZENY_0_14": 9214.0, "OBYV_15_64": 87139.0, "MUZI_15_64": 44370.0, "ZENY_15_64": 42769.0, "OBYV_65": 24999.0, "MUZI_65": 10133.0, "ZENY_65": 14866.0, "MIRA_NEZAM": 8.165063, "MIRA_NEZAM_MUZI": 8.140781, "MIRA_NEZAM_ZENY": 8.188502, "NADEJE_DOZ_MUZI": 74.879056, "NADEJE_DOZ_ZENY": 80.704993, "SX": -525102.72929000005, "SY": -1134477.0470199999 }, "geometry": { "type": "Point", "coordinates": [ -525102.729299999773502, -1134477.046999998390675 ] } },
{ "type": "Feature", "properties": { "OBJECTID": 66, "KOD_OKRES": "40819", "KOD_LAU1": "CZ0715", "NAZ_LAU1": "Šumperk", "KOD_KRAJ": "3123", "KOD_CZNUTS3": "CZ071", "NAZ_CZNUTS3": "Olomoucký kraj", "SNATKY": 510.0, "ROZVODY": 307.0, "NAROZENI": 1250.0, "ZEMRELI": 1376.0, "PRISTEHOVALI": 890.0, "VYSTEHOVALI": 1231.0, "POCET_OBYV": 121785.0, "MUZI": 59834.0, "ZENY": 61951.0, "OBYV_0_14": 18128.0, "MUZI_0_14": 9225.0, "ZENY_0_14": 8903.0, "OBYV_15_64": 80454.0, "MUZI_15_64": 40971.0, "ZENY_15_64": 39483.0, "OBYV_65": 23203.0, "MUZI_65": 9638.0, "ZENY_65": 13565.0, "MIRA_NEZAM": 6.898686, "MIRA_NEZAM_MUZI": 6.496291, "MIRA_NEZAM_ZENY": 7.2862, "NADEJE_DOZ_MUZI": 73.953334, "NADEJE_DOZ_ZENY": 81.439222, "SX": -563782.40547600004, "SY": -1077300.36524 }, "geometry": { "type": "Point", "coordinates": [ -563782.405499998480082, -1077300.365200001746416 ] } },
{ "type": "Feature", "properties": { "OBJECTID": 67, "KOD_OKRES": "40827", "KOD_LAU1": "CZ0721", "NAZ_LAU1": "Kroměříž", "KOD_KRAJ": "3131", "KOD_CZNUTS3": "CZ072", "NAZ_CZNUTS3": "Zlínský kraj", "SNATKY": 494.0, "ROZVODY": 269.0, "NAROZENI": 1031.0, "ZEMRELI": 1173.0, "PRISTEHOVALI": 1280.0, "VYSTEHOVALI": 1312.0, "POCET_OBYV": 106294.0, "MUZI": 51868.0, "ZENY": 54426.0, "OBYV_0_14": 15414.0, "MUZI_0_14": 7874.0, "ZENY_0_14": 7540.0, "OBYV_15_64": 70626.0, "MUZI_15_64": 35832.0, "ZENY_15_64": 34794.0, "OBYV_65": 20254.0, "MUZI_65": 8162.0, "ZENY_65": 12092.0, "MIRA_NEZAM": 7.153764, "MIRA_NEZAM_MUZI": 7.103496, "MIRA_NEZAM_ZENY": 7.202563, "NADEJE_DOZ_MUZI": 74.273196, "NADEJE_DOZ_ZENY": 81.037217, "SX": -536493.33341700002, "SY": -1156269.81116 }, "geometry": { "type": "Point", "coordinates": [ -536493.333399999886751, -1156269.811200000345707 ] } },
{ "type": "Feature", "properties": { "OBJECTID": 68, "KOD_OKRES": "40835", "KOD_LAU1": "CZ0722", "NAZ_LAU1": "Uherské Hradiště", "KOD_KRAJ": "3131", "KOD_CZNUTS3": "CZ072", "NAZ_CZNUTS3": "Zlínský kraj", "SNATKY": 696.0, "ROZVODY": 290.0, "NAROZENI": 1395.0, "ZEMRELI": 1501.0, "PRISTEHOVALI": 1109.0, "VYSTEHOVALI": 1162.0, "POCET_OBYV": 142830.0, "MUZI": 70001.0, "ZENY": 72829.0, "OBYV_0_14": 20511.0, "MUZI_0_14": 10519.0, "ZENY_0_14": 9992.0, "OBYV_15_64": 95246.0, "MUZI_15_64": 48643.0, "ZENY_15_64": 46603.0, "OBYV_65": 27073.0, "MUZI_65": 10839.0, "ZENY_65": 16234.0, "MIRA_NEZAM": 5.199501, "MIRA_NEZAM_MUZI": 5.406447, "MIRA_NEZAM_ZENY": 5.001231, "NADEJE_DOZ_MUZI": 74.931688, "NADEJE_DOZ_ZENY": 81.492755, "SX": -530401.92961400002, "SY": -1186113.6116500001 }, "geometry": { "type": "Point", "coordinates": [ -530401.92960000038147, -1186113.611600000411272 ] } },
{ "type": "Feature", "properties": { "OBJECTID": 69, "KOD_OKRES": "40843", "KOD_LAU1": "CZ0723", "NAZ_LAU1": "Vsetín", "KOD_KRAJ": "3131", "KOD_CZNUTS3": "CZ072", "NAZ_CZNUTS3": "Zlínský kraj", "SNATKY": 633.0, "ROZVODY": 340.0, "NAROZENI": 1488.0, "ZEMRELI": 1582.0, "PRISTEHOVALI": 919.0, "VYSTEHOVALI": 1114.0, "POCET_OBYV": 143722.0, "MUZI": 70647.0, "ZENY": 73075.0, "OBYV_0_14": 21557.0, "MUZI_0_14": 11135.0, "ZENY_0_14": 10422.0, "OBYV_15_64": 95745.0, "MUZI_15_64": 48770.0, "ZENY_15_64": 46975.0, "OBYV_65": 26420.0, "MUZI_65": 10742.0, "ZENY_65": 15678.0, "MIRA_NEZAM": 7.001021, "MIRA_NEZAM_MUZI": 6.575372, "MIRA_NEZAM_ZENY": 7.41112, "NADEJE_DOZ_MUZI": 74.275518, "NADEJE_DOZ_ZENY": 81.291798, "SX": -489790.11441099999, "SY": -1151708.33235 }, "geometry": { "type": "Point", "coordinates": [ -489790.114399999380112, -1151708.332299999892712 ] } },
{ "type": "Feature", "properties": { "OBJECTID": 70, "KOD_OKRES": "40851", "KOD_LAU1": "CZ0724", "NAZ_LAU1": "Zlín", "KOD_KRAJ": "3131", "KOD_CZNUTS3": "CZ072", "NAZ_CZNUTS3": "Zlínský kraj", "SNATKY": 873.0, "ROZVODY": 424.0, "NAROZENI": 1933.0, "ZEMRELI": 2034.0, "PRISTEHOVALI": 1796.0, "VYSTEHOVALI": 1658.0, "POCET_OBYV": 191830.0, "MUZI": 93640.0, "ZENY": 98190.0, "OBYV_0_14": 28170.0, "MUZI_0_14": 14488.0, "ZENY_0_14": 13682.0, "OBYV_15_64": 127299.0, "MUZI_15_64": 64544.0, "ZENY_15_64": 62755.0, "OBYV_65": 36361.0, "MUZI_65": 14608.0, "ZENY_65": 21753.0, "MIRA_NEZAM": 5.141116, "MIRA_NEZAM_MUZI": 5.346954, "MIRA_NEZAM_ZENY": 4.941063, "NADEJE_DOZ_MUZI": 75.62517, "NADEJE_DOZ_ZENY": 82.041125, "SX": -512841.13044500002, "SY": -1170985.28529 }, "geometry": { "type": "Point", "coordinates": [ -512841.130399998277426, -1170985.285300001502037 ] } },
{ "type": "Feature", "properties": { "OBJECTID": 71, "KOD_OKRES": "40860", "KOD_LAU1": "CZ0801", "NAZ_LAU1": "Bruntál", "KOD_KRAJ": "3140", "KOD_CZNUTS3": "CZ080", "NAZ_CZNUTS3": "Moravskoslezský kraj", "SNATKY": 410.0, "ROZVODY": 220.0, "NAROZENI": 839.0, "ZEMRELI": 1130.0, "PRISTEHOVALI": 938.0, "VYSTEHOVALI": 1502.0, "POCET_OBYV": 93718.0, "MUZI": 46316.0, "ZENY": 47402.0, "OBYV_0_14": 13543.0, "MUZI_0_14": 7003.0, "ZENY_0_14": 6540.0, "OBYV_15_64": 62931.0, "MUZI_15_64": 32036.0, "ZENY_15_64": 30895.0, "OBYV_65": 17244.0, "MUZI_65": 7277.0, "ZENY_65": 9967.0, "MIRA_NEZAM": 11.563608, "MIRA_NEZAM_MUZI": 11.290581, "MIRA_NEZAM_ZENY": 11.82759, "NADEJE_DOZ_MUZI": 73.51239, "NADEJE_DOZ_ZENY": 79.871467, "SX": -527318.03969899996, "SY": -1073356.68836 }, "geometry": { "type": "Point", "coordinates": [ -527318.039700001478195, -1073356.688400000333786 ] } },
{ "type": "Feature", "properties": { "OBJECTID": 72, "KOD_OKRES": "40878", "KOD_LAU1": "CZ0802", "NAZ_LAU1": "Frýdek-Místek", "KOD_KRAJ": "3140", "KOD_CZNUTS3": "CZ080", "NAZ_CZNUTS3": "Moravskoslezský kraj", "SNATKY": 1008.0, "ROZVODY": 528.0, "NAROZENI": 2077.0, "ZEMRELI": 2305.0, "PRISTEHOVALI": 2690.0, "VYSTEHOVALI": 2189.0, "POCET_OBYV": 213260.0, "MUZI": 105049.0, "ZENY": 108211.0, "OBYV_0_14": 32528.0, "MUZI_0_14": 16589.0, "ZENY_0_14": 15939.0, "OBYV_15_64": 143081.0, "MUZI_15_64": 73029.0, "ZENY_15_64": 70052.0, "OBYV_65": 37651.0, "MUZI_65": 15431.0, "ZENY_65": 22220.0, "MIRA_NEZAM": 5.603319, "MIRA_NEZAM_MUZI": 5.644919, "MIRA_NEZAM_ZENY": 5.563469, "NADEJE_DOZ_MUZI": 74.362755, "NADEJE_DOZ_ZENY": 80.797132, "SX": -457405.63903299998, "SY": -1129497.4750699999 }, "geometry": { "type": "Point", "coordinates": [ -457405.638999998569489, -1129497.475099999457598 ] } },
{ "type": "Feature", "properties": { "OBJECTID": 73, "KOD_OKRES": "40886", "KOD_LAU1": "CZ0803", "NAZ_LAU1": "Karviná", "KOD_KRAJ": "3140", "KOD_CZNUTS3": "CZ080", "NAZ_CZNUTS3": "Moravskoslezský kraj", "SNATKY": 1203.0, "ROZVODY": 642.0, "NAROZENI": 2296.0, "ZEMRELI": 3033.0, "PRISTEHOVALI": 2366.0, "VYSTEHOVALI": 4056.0, "POCET_OBYV": 253518.0, "MUZI": 124482.0, "ZENY": 129036.0, "OBYV_0_14": 35756.0, "MUZI_0_14": 18330.0, "ZENY_0_14": 17426.0, "OBYV_15_64": 171069.0, "MUZI_15_64": 87468.0, "ZENY_15_64": 83601.0, "OBYV_65": 46693.0, "MUZI_65": 18684.0, "ZENY_65": 28009.0, "MIRA_NEZAM": 10.964422, "MIRA_NEZAM_MUZI": 10.846401, "MIRA_NEZAM_ZENY": 11.077342, "NADEJE_DOZ_MUZI": 72.961105, "NADEJE_DOZ_ZENY": 79.341512, "SX": -456692.96000999998, "SY": -1103532.7696700001 }, "geometry": { "type": "Point", "coordinates": [ -456692.96000000089407, -1103532.76969999819994 ] } },
{ "type": "Feature", "properties": { "OBJECTID": 74, "KOD_OKRES": "40894", "KOD_LAU1": "CZ0804", "NAZ_LAU1": "Nový Jičín", "KOD_KRAJ": "3140", "KOD_CZNUTS3": "CZ080", "NAZ_CZNUTS3": "Moravskoslezský kraj", "SNATKY": 705.0, "ROZVODY": 339.0, "NAROZENI": 1584.0, "ZEMRELI": 1453.0, "PRISTEHOVALI": 1529.0, "VYSTEHOVALI": 1622.0, "POCET_OBYV": 151762.0, "MUZI": 74772.0, "ZENY": 76990.0, "OBYV_0_14": 23565.0, "MUZI_0_14": 12062.0, "ZENY_0_14": 11503.0, "OBYV_15_64": 101734.0, "MUZI_15_64": 51737.0, "ZENY_15_64": 49997.0, "OBYV_65": 26463.0, "MUZI_65": 10973.0, "ZENY_65": 15490.0, "MIRA_NEZAM": 5.245757, "MIRA_NEZAM_MUZI": 5.116223, "MIRA_NEZAM_ZENY": 5.370849, "NADEJE_DOZ_MUZI": 74.463254, "NADEJE_DOZ_ZENY": 80.871243, "SX": -492432.23418700002, "SY": -1120250.0822600001 }, "geometry": { "type": "Point", "coordinates": [ -492432.234200000762939, -1120250.082299999892712 ] } },
{ "type": "Feature", "properties": { "OBJECTID": 75, "KOD_OKRES": "40908", "KOD_LAU1": "CZ0805", "NAZ_LAU1": "Opava", "KOD_KRAJ": "3140", "KOD_CZNUTS3": "CZ080", "NAZ_CZNUTS3": "Moravskoslezský kraj", "SNATKY": 797.0, "ROZVODY": 380.0, "NAROZENI": 1795.0, "ZEMRELI": 1839.0, "PRISTEHOVALI": 1745.0, "VYSTEHOVALI": 1766.0, "POCET_OBYV": 176742.0, "MUZI": 86554.0, "ZENY": 90188.0, "OBYV_0_14": 27121.0, "MUZI_0_14": 13882.0, "ZENY_0_14": 13239.0, "OBYV_15_64": 118652.0, "MUZI_15_64": 60124.0, "ZENY_15_64": 58528.0, "OBYV_65": 30969.0, "MUZI_65": 12548.0, "ZENY_65": 18421.0, "MIRA_NEZAM": 7.087621, "MIRA_NEZAM_MUZI": 6.54703, "MIRA_NEZAM_ZENY": 7.613876, "NADEJE_DOZ_MUZI": 74.376346, "NADEJE_DOZ_ZENY": 81.039246, "SX": -498379.4798, "SY": -1092694.05321 }, "geometry": { "type": "Point", "coordinates": [ -498379.479800000786781, -1092694.053199999034405 ] } },
{ "type": "Feature", "properties": { "OBJECTID": 76, "KOD_OKRES": "40916", "KOD_LAU1": "CZ0806", "NAZ_LAU1": "Ostrava-město", "KOD_KRAJ": "3140", "KOD_CZNUTS3": "CZ080", "NAZ_CZNUTS3": "Moravskoslezský kraj", "SNATKY": 1418.0, "ROZVODY": 941.0, "NAROZENI": 3275.0, "ZEMRELI": 3790.0, "PRISTEHOVALI": 4589.0, "VYSTEHOVALI": 5403.0, "POCET_OBYV": 324311.0, "MUZI": 157239.0, "ZENY": 167072.0, "OBYV_0_14": 47750.0, "MUZI_0_14": 24394.0, "ZENY_0_14": 23356.0, "OBYV_15_64": 216481.0, "MUZI_15_64": 108996.0, "ZENY_15_64": 107485.0, "OBYV_65": 60080.0, "MUZI_65": 23849.0, "ZENY_65": 36231.0, "MIRA_NEZAM": 10.062305, "MIRA_NEZAM_MUZI": 9.851499, "MIRA_NEZAM_ZENY": 10.270152, "NADEJE_DOZ_MUZI": 73.422816, "NADEJE_DOZ_ZENY": 80.250013, "SX": -474790.47833499999, "SY": -1104509.7180900001 }, "geometry": { "type": "Point", "coordinates": [ -474790.478300001472235, -1104509.718100000172853 ] } },
{ "type": "Feature", "properties": { "OBJECTID": 77, "KOD_OKRES": "40924", "KOD_LAU1": "CZ0100", "NAZ_LAU1": "Praha", "KOD_KRAJ": "3018", "KOD_CZNUTS3": "CZ010", "NAZ_CZNUTS3": "Hlavní město Praha", "SNATKY": 6073.0, "ROZVODY": 2983.0, "NAROZENI": 14759.0, "ZEMRELI": 12420.0, "PRISTEHOVALI": 33711.0, "VYSTEHOVALI": 27680.0, "POCET_OBYV": 1267449.0, "MUZI": 614669.0, "ZENY": 652780.0, "OBYV_0_14": 188832.0, "MUZI_0_14": 97037.0, "ZENY_0_14": 91795.0, "OBYV_15_64": 844932.0, "MUZI_15_64": 421594.0, "ZENY_15_64": 423338.0, "OBYV_65": 233685.0, "MUZI_65": 96038.0, "ZENY_65": 137647.0, "MIRA_NEZAM": 4.201142, "MIRA_NEZAM_MUZI": 4.37919, "MIRA_NEZAM_ZENY": 4.022674, "NADEJE_DOZ_MUZI": 77.395301, "NADEJE_DOZ_ZENY": 82.214865, "SX": -739951.99350700004, "SY": -1045726.52822 }, "geometry": { "type": "Point", "coordinates": [ -739951.993500001728535, -1045726.528200000524521 ] } }
]
}
