{
"type": "FeatureCollection",
"name": "Healtcare_maternality_points",
"crs": { "type": "name", "properties": { "name": "urn:ogc:def:crs:EPSG::5514" } },
"features": [
{ "type": "Feature", "properties": { "long": "50.77032121", "lat": "15.06344909", "name": "Krajská nemocnice Liberec, a.s." }, "geometry": { "type": "Point", "coordinates": [ -687558.025837205233984, -973753.798033900558949 ] } },
{ "type": "Feature", "properties": { "long": "50.72929985", "lat": "15.15956458", "name": "Nemocnice Jablonec nad Nisou, p.o." }, "geometry": { "type": "Point", "coordinates": [ -681409.444293106440455, -979142.561915581231005 ] } },
{ "type": "Feature", "properties": { "long": "50.68585441", "lat": "14.54883494", "name": "Nemocnice s poliklinikou Česká Lípa, a.s." }, "geometry": { "type": "Point", "coordinates": [ -724812.510850730119273, -978303.721823405358009 ] } },
{ "type": "Feature", "properties": { "long": "50.68124816", "lat": "14.02236532", "name": "Krajská zdravotní, a.s. - Masarykova nemocnice v Ústí nad Labem, o.z." }, "geometry": { "type": "Point", "coordinates": [ -761733.591918021906167, -973674.727842579246499 ] } },
{ "type": "Feature", "properties": { "long": "50.63656433", "lat": "13.81085631", "name": "Krajská zdravotní, a.s. - Nemocnice Teplice, o.z." }, "geometry": { "type": "Point", "coordinates": [ -777245.752200824092142, -976456.254794956650585 ] } },
{ "type": "Feature", "properties": { "long": "50.6114485", "lat": "15.49955217", "name": "MMN, a.s., Nemocnice Jilemnice" }, "geometry": { "type": "Point", "coordinates": [ -659188.181813356350176, -995137.488021184341051 ] } },
{ "type": "Feature", "properties": { "long": "50.56044479", "lat": "15.91933559", "name": "Oblastní nemocnice Trutnov a.s." }, "geometry": { "type": "Point", "coordinates": [ -630345.705733613343909, -1004315.359867760562338 ] } },
{ "type": "Feature", "properties": { "long": "50.54098238", "lat": "14.14331062", "name": "Krajská zdravotní, a.s. - Nemocnice Litoměřice, o.z." }, "geometry": { "type": "Point", "coordinates": [ -755454.425026108394377, -990326.73603626631666 ] } },
{ "type": "Feature", "properties": { "long": "50.50769719", "lat": "13.62734519", "name": "Krajská zdravotní, a.s. - Nemocnice Most, o.z." }, "geometry": { "type": "Point", "coordinates": [ -792193.236884418874979, -988745.287887153797783 ] } },
{ "type": "Feature", "properties": { "long": "50.45517991", "lat": "13.41128889", "name": "Krajská zdravotní, a.s. - Nemocnice Chomutov, o.z." }, "geometry": { "type": "Point", "coordinates": [ -808223.50633240735624, -992249.17869015422184 ] } },
{ "type": "Feature", "properties": { "long": "50.44010692", "lat": "15.35739801", "name": "Oblastní nemocnice Jičín a.s." }, "geometry": { "type": "Point", "coordinates": [ -671535.333564878790639, -1012813.895360014634207 ] } },
{ "type": "Feature", "properties": { "long": "50.42303222", "lat": "14.24973717", "name": "Nemocnice Roudnice nad Labem s.r.o." }, "geometry": { "type": "Point", "coordinates": [ -749801.645310393651016, -1004370.451667599380016 ] } },
{ "type": "Feature", "properties": { "long": "50.41735867", "lat": "14.91017911", "name": "Oblastní nemocnice Mladá Boleslav, a.s., nemocnice Středočeského kraje" }, "geometry": { "type": "Point", "coordinates": [ -703376.498833994963206, -1011293.172918554977514 ] } },
{ "type": "Feature", "properties": { "long": "50.41076852", "lat": "16.1674742", "name": "Oblastní nemocnice Náchod a.s." }, "geometry": { "type": "Point", "coordinates": [ -614762.361652121064253, -1022878.029198671341874 ] } },
{ "type": "Feature", "properties": { "long": "50.39122562", "lat": "13.27014872", "name": "Nemocnice Kadaň s.r.o." }, "geometry": { "type": "Point", "coordinates": [ -819209.586970643489622, -997771.016709300805815 ] } },
{ "type": "Feature", "properties": { "long": "50.3471227", "lat": "14.48413983", "name": "Mělnická zdravotní, a.s., Nemocnice Mělník" }, "geometry": { "type": "Point", "coordinates": [ -734445.611293791094795, -1015017.902549810474738 ] } },
{ "type": "Feature", "properties": { "long": "50.23446738", "lat": "14.0839675", "name": "Nemocnice Slaný" }, "geometry": { "type": "Point", "coordinates": [ -764417.745724930195138, -1023490.067108981078491 ] } },
{ "type": "Feature", "properties": { "long": "50.23266347", "lat": "12.87660763", "name": "Karlovarská krajská nemocnice a.s., Nemocnice Karlovy Vary" }, "geometry": { "type": "Point", "coordinates": [ -849622.915519224130549, -1010875.17104109772481 ] } },
{ "type": "Feature", "properties": { "long": "50.22777253", "lat": "17.19834047", "name": "Nemocnice AGEL Jeseník a.s." }, "geometry": { "type": "Point", "coordinates": [ -543923.420019360608421, -1050931.609065641881898 ] } },
{ "type": "Feature", "properties": { "long": "50.2004032", "lat": "15.82693641", "name": "Fakultní nemocnice Hradec Králové" }, "geometry": { "type": "Point", "coordinates": [ -641561.803661957848817, -1043320.854789567179978 ] } },
{ "type": "Feature", "properties": { "long": "50.1868714", "lat": "15.03745558", "name": "Nemocnice Nymburk s.r.o." }, "geometry": { "type": "Point", "coordinates": [ -697691.186479596770369, -1037885.353178680408746 ] } },
{ "type": "Feature", "properties": { "long": "50.17801926", "lat": "12.65058237", "name": "Nemocnice Sokolov s.r.o., Nemocnice Sokolov" }, "geometry": { "type": "Point", "coordinates": [ -866516.074548391276039, -1014322.654023637063801 ] } },
{ "type": "Feature", "properties": { "long": "50.16797894", "lat": "16.27078928", "name": "Oblastní nemocnice Náchod a.s., Nemocnice Rychnov nad Kněžnou" }, "geometry": { "type": "Point", "coordinates": [ -610485.212818627827801, -1050542.0942911086604 ] } },
{ "type": "Feature", "properties": { "long": "50.14092451", "lat": "14.08889056", "name": "Oblastní nemocnice Kladno, a.s., nemocnice Středočeského kraje" }, "geometry": { "type": "Point", "coordinates": [ -765533.767785492236726, -1033840.101961651467718 ] } },
{ "type": "Feature", "properties": { "long": "50.11538512", "lat": "14.46408014", "name": "Fakultní nemocnice Bulovka" }, "geometry": { "type": "Point", "coordinates": [ -739358.272289233864285, -1040360.806177600752562 ] } },
{ "type": "Feature", "properties": { "long": "50.1080229", "lat": "13.71538931", "name": "Masarykova nemocnice Rakovník s.r.o." }, "geometry": { "type": "Point", "coordinates": [ -792489.302765751024708, -1033638.29669982928317 ] } },
{ "type": "Feature", "properties": { "long": "50.09512641", "lat": "17.68743692", "name": "Sdružené zdravotnické zařízení Krnov, příspěvková organizace, Nemocnice" }, "geometry": { "type": "Point", "coordinates": [ -510558.119021375488956, -1068988.571171872317791 ] } },
{ "type": "Feature", "properties": { "long": "50.07571787", "lat": "14.47542513", "name": "Fakultní nemocnice Královské Vinohrady" }, "geometry": { "type": "Point", "coordinates": [ -739152.527934875106439, -1044841.96994649246335 ] } },
{ "type": "Feature", "properties": { "long": "50.07265882", "lat": "14.34055039", "name": "Fakultní nemocnice v Motole" }, "geometry": { "type": "Point", "coordinates": [ -748762.829958980553783, -1043861.549245897098444 ] } },
{ "type": "Feature", "properties": { "long": "50.07139729", "lat": "14.42658197", "name": "Všeobecná fakultní nemocnice v Praze, Gynekologicko - porodnická klinika" }, "geometry": { "type": "Point", "coordinates": [ -742681.586479288293049, -1044842.929425983224064 ] } },
{ "type": "Feature", "properties": { "long": "50.06990659", "lat": "12.36693832", "name": "Karlovarská krajská nemocnice a.s., Nemocnice Cheb" }, "geometry": { "type": "Point", "coordinates": [ -888475.52199163637124, -1022910.515594637603499 ] } },
{ "type": "Feature", "properties": { "long": "50.06213043", "lat": "14.41925583", "name": "Ústav pro péči o matku a dítě" }, "geometry": { "type": "Point", "coordinates": [ -743341.619125837343745, -1045792.50905970018357 ] } },
{ "type": "Feature", "properties": { "long": "50.02977639", "lat": "14.45782298", "name": "Fakultní Thomayerova nemocnice" }, "geometry": { "type": "Point", "coordinates": [ -741094.699519547517411, -1049733.290073395706713 ] } },
{ "type": "Feature", "properties": { "long": "50.02957092", "lat": "15.78893446", "name": "Nemocnice Pardubického kraje, a.s., Pardubická nemocnice" }, "geometry": { "type": "Point", "coordinates": [ -646502.21256080432795, -1061868.675545485923067 ] } },
{ "type": "Feature", "properties": { "long": "50.02049719", "lat": "15.19747641", "name": "Oblastní nemocnice Kolín, a.s., nemocnice Středočeského kraje" }, "geometry": { "type": "Point", "coordinates": [ -688688.300080059911124, -1057694.714876150013879 ] } },
{ "type": "Feature", "properties": { "long": "49.9704725", "lat": "16.40180755", "name": "Nemocnice Pardubického kraje, a.s., Orlickoústecká nemocnice" }, "geometry": { "type": "Point", "coordinates": [ -603601.896331666153856, -1073415.698870939668268 ] } },
{ "type": "Feature", "properties": { "long": "49.95953868", "lat": "16.96753397", "name": "Nemocnice Šumperk a.s." }, "geometry": { "type": "Point", "coordinates": [ -563373.293087419238873, -1078944.348759033950046 ] } },
{ "type": "Feature", "properties": { "long": "49.94227217", "lat": "15.80736236", "name": "Nemocnice Pardubického kraje, a.s., Chrudimská nemocnice" }, "geometry": { "type": "Point", "coordinates": [ -646336.656988164992072, -1071666.338000886375085 ] } },
{ "type": "Feature", "properties": { "long": "49.93379853", "lat": "17.87934469", "name": "Slezská nemocnice v Opavě, příspěvková organizace" }, "geometry": { "type": "Point", "coordinates": [ -498511.282116912014317, -1088122.924941280856729 ] } },
{ "type": "Feature", "properties": { "long": "49.90423545", "lat": "15.40072823", "name": "Městská nemocnice Čáslav" }, "geometry": { "type": "Point", "coordinates": [ -675831.894611272262409, -1072342.63818487804383 ] } },
{ "type": "Feature", "properties": { "long": "49.84831451", "lat": "18.54990148", "name": "Nemocnice Karviná - Ráj, příspěvková organizace" }, "geometry": { "type": "Point", "coordinates": [ -451325.348018860328011, -1101755.493613024707884 ] } },
{ "type": "Feature", "properties": { "long": "49.84065418", "lat": "13.91558375", "name": "NH Hospital a.s., Nemocnice Hořovice" }, "geometry": { "type": "Point", "coordinates": [ -782571.473220255575143, -1065135.587999860057607 ] } },
{ "type": "Feature", "properties": { "long": "49.83304399", "lat": "18.27468611", "name": "Městská nemocnice Ostrava, příspěvková organizace" }, "geometry": { "type": "Point", "coordinates": [ -471195.773783344775438, -1101790.322248456068337 ] } },
{ "type": "Feature", "properties": { "long": "49.82680254", "lat": "18.16107932", "name": "Fakultní nemocnice Ostrava" }, "geometry": { "type": "Point", "coordinates": [ -479399.240211803698912, -1101776.665902866981924 ] } },
{ "type": "Feature", "properties": { "long": "49.81478388", "lat": "18.26874876", "name": "Nemocnice AGEL Ostrava-Vítkovice a.s." }, "geometry": { "type": "Point", "coordinates": [ -471795.270453904580791, -1103777.360163442092016 ] } },
{ "type": "Feature", "properties": { "long": "49.78617052", "lat": "14.67917235", "name": "Nemocnice Rudolfa a Stefanie Benešov, a.s., nemocnice Středočeského kraje" }, "geometry": { "type": "Point", "coordinates": [ -728980.033585772849619, -1078716.661270914599299 ] } },
{ "type": "Feature", "properties": { "long": "49.78452004", "lat": "18.43799361", "name": "Nemocnice Havířov, příspěvková organizace" }, "geometry": { "type": "Point", "coordinates": [ -459938.519564376969356, -1108161.257180868647993 ] } },
{ "type": "Feature", "properties": { "long": "49.76231318", "lat": "13.38022779", "name": "Fakultní nemocnice Plzeň" }, "geometry": { "type": "Point", "coordinates": [ -821969.739401959697716, -1068107.59753207094036 ] } },
{ "type": "Feature", "properties": { "long": "49.75312929", "lat": "16.46975441", "name": "Nemocnice Pardubického kraje, a.s., Svitavská nemocnice" }, "geometry": { "type": "Point", "coordinates": [ -601398.062367488397285, -1097978.739503038581461 ] } },
{ "type": "Feature", "properties": { "long": "49.72733423", "lat": "13.3697342", "name": "Mulačova nemocnice s.r.o." }, "geometry": { "type": "Point", "coordinates": [ -823301.51390632649418, -1071840.226726468652487 ] } },
{ "type": "Feature", "properties": { "long": "49.72246654", "lat": "17.29814345", "name": "AGEL Středomoravská nemocniční a.s., Nemocnice Šternberk" }, "geometry": { "type": "Point", "coordinates": [ -542363.89891308976803, -1107569.334822801407427 ] } },
{ "type": "Feature", "properties": { "long": "49.69177151", "lat": "14.01045032", "name": "Oblastní nemocnice Příbram, a.s." }, "geometry": { "type": "Point", "coordinates": [ -778164.247912938706577, -1082497.827125524170697 ] } },
{ "type": "Feature", "properties": { "long": "49.68998536", "lat": "18.35538856", "name": "Nemocnice ve Frýdku-Místku, příspěvková organizace" }, "geometry": { "type": "Point", "coordinates": [ -466754.910574236069806, -1118138.92663313401863 ] } },
{ "type": "Feature", "properties": { "long": "49.6747535", "lat": "18.69069676", "name": "Nemocnice Třinec, příspěvková organizace" }, "geometry": { "type": "Point", "coordinates": [ -442778.084598729154095, -1121818.742730444064364 ] } },
{ "type": "Feature", "properties": { "long": "49.6363239", "lat": "13.15580441", "name": "Stodská nemocnice, a.s." }, "geometry": { "type": "Point", "coordinates": [ -840095.829241921659559, -1079504.459478797856718 ] } },
{ "type": "Feature", "properties": { "long": "49.60947849", "lat": "15.57127223", "name": "Nemocnice Havlíčkův Brod, příspěvková organizace" }, "geometry": { "type": "Point", "coordinates": [ -667643.058861717232503, -1106379.991673890966922 ] } },
{ "type": "Feature", "properties": { "long": "49.58897491", "lat": "18.00755491", "name": "Nemocnice AGEL Nový Jičín a.s." }, "geometry": { "type": "Point", "coordinates": [ -492758.720660542370752, -1127150.742532928474247 ] } },
{ "type": "Feature", "properties": { "long": "49.58368145", "lat": "17.23820837", "name": "Fakultní nemocnice Olomouc" }, "geometry": { "type": "Point", "coordinates": [ -548194.914031600463204, -1122501.630106576951221 ] } },
{ "type": "Feature", "properties": { "long": "49.5603231", "lat": "16.06281202", "name": "Nemocnice Nové Město na Moravě, příspěvová organizace" }, "geometry": { "type": "Point", "coordinates": [ -632994.622370916884392, -1115997.480226733721793 ] } },
{ "type": "Feature", "properties": { "long": "49.49098496", "lat": "16.64305944", "name": "Nemocnice Boskovice s.r.o." }, "geometry": { "type": "Point", "coordinates": [ -592102.418944185366854, -1128315.596866925247014 ] } },
{ "type": "Feature", "properties": { "long": "49.4756776", "lat": "17.08830366", "name": "AGEL Středomoravská nemocniční a.s., Nemocnice Prostějov" }, "geometry": { "type": "Point", "coordinates": [ -560194.527460864163004, -1133365.80337698967196 ] } },
{ "type": "Feature", "properties": { "long": "49.46292123", "lat": "17.97702649", "name": "Nemocnice AGEL Valašské Meziříčí a.s." }, "geometry": { "type": "Point", "coordinates": [ -496211.411424162273761, -1140916.514015063643456 ] } },
{ "type": "Feature", "properties": { "long": "49.45686955", "lat": "17.47366587", "name": "AGEL Středomoravská nemocniční a.s., Nemocnice Přerov" }, "geometry": { "type": "Point", "coordinates": [ -532605.550614006118849, -1138201.462528348201886 ] } },
{ "type": "Feature", "properties": { "long": "49.43805635", "lat": "12.90791971", "name": "Domažlická nemocnice, a.s." }, "geometry": { "type": "Point", "coordinates": [ -861232.591901900945231, -1098515.285624975105748 ] } },
{ "type": "Feature", "properties": { "long": "49.43351427", "lat": "15.22983895", "name": "Nemocnice Pelhřimov, příspěvková organizace" }, "geometry": { "type": "Point", "coordinates": [ -694587.330472257453948, -1122750.158005872741342 ] } },
{ "type": "Feature", "properties": { "long": "49.41791449", "lat": "14.65384738", "name": "Nemocnice Tábor, a.s." }, "geometry": { "type": "Point", "coordinates": [ -736243.025027587660588, -1119063.500253347679973 ] } },
{ "type": "Feature", "properties": { "long": "49.40370818", "lat": "13.29242786", "name": "Klatovská nemocnice, a.s." }, "geometry": { "type": "Point", "coordinates": [ -834254.025598560227081, -1106579.177245651837438 ] } },
{ "type": "Feature", "properties": { "long": "49.39759112", "lat": "15.57087537", "name": "Nemocnice Jihlava, příspěvková organizace" }, "geometry": { "type": "Point", "coordinates": [ -670525.342715889797546, -1129766.899764809058979 ] } },
{ "type": "Feature", "properties": { "long": "49.3321739", "lat": "17.99820444", "name": "Vsetínská nemocnice a.s." }, "geometry": { "type": "Point", "coordinates": [ -495979.337270382791758, -1155536.129134849878028 ] } },
{ "type": "Feature", "properties": { "long": "49.30289244", "lat": "14.15608839", "name": "Nemocnice Písek, a.s." }, "geometry": { "type": "Point", "coordinates": [ -773806.911122815450653, -1126800.438624659786001 ] } },
{ "type": "Feature", "properties": { "long": "49.29284765", "lat": "17.3807442", "name": "Kroměřížská nemocnice a.s." }, "geometry": { "type": "Point", "coordinates": [ -541085.115875236340798, -1155704.144917264580727 ] } },
{ "type": "Feature", "properties": { "long": "49.27751357", "lat": "16.97992088", "name": "Nemocnice Vyškov, příspěvková organizace" }, "geometry": { "type": "Point", "coordinates": [ -570268.059711926267482, -1154486.934062699787319 ] } },
{ "type": "Feature", "properties": { "long": "49.26555228", "lat": "13.90703747", "name": "Nemocnice Strakonice, a.s." }, "geometry": { "type": "Point", "coordinates": [ -792331.194875433691777, -1128349.068035409552976 ] } },
{ "type": "Feature", "properties": { "long": "49.2300947", "lat": "17.69401729", "name": "Krajská nemocnice T. Bati, a. s." }, "geometry": { "type": "Point", "coordinates": [ -519052.910176705743652, -1164822.492017028154805 ] } },
{ "type": "Feature", "properties": { "long": "49.21221956", "lat": "15.89076743", "name": "Nemocnice Třebíč, příspěvková organizace" }, "geometry": { "type": "Point", "coordinates": [ -649881.946034436463378, -1153002.935489838011563 ] } },
{ "type": "Feature", "properties": { "long": "49.18562787", "lat": "16.5969135", "name": "Nemocnice Milosrdných bratří, příspěvková organizace" }, "geometry": { "type": "Point", "coordinates": [ -599079.936128022382036, -1161717.34056362695992 ] } },
{ "type": "Feature", "properties": { "long": "49.17438077", "lat": "16.57657434", "name": "Fakultní nemocnice Brno" }, "geometry": { "type": "Point", "coordinates": [ -600688.796385922818445, -1162801.030506101902574 ] } },
{ "type": "Feature", "properties": { "long": "49.13897672", "lat": "15.0039183", "name": "Nemocnice Jindřichův Hradec, a.s." }, "geometry": { "type": "Point", "coordinates": [ -715051.737154501257464, -1153150.544504473684356 ] } },
{ "type": "Feature", "properties": { "long": "49.10244504", "lat": "16.371936", "name": "Nemocnice Ivančice, příspěvková organizace" }, "geometry": { "type": "Point", "coordinates": [ -616404.003691331949085, -1169121.969287781510502 ] } },
{ "type": "Feature", "properties": { "long": "49.06306341", "lat": "17.45243643", "name": "Uherskohradišťská nemocnice a.s." }, "geometry": { "type": "Point", "coordinates": [ -538357.330556403845549, -1181642.875621454790235 ] } },
{ "type": "Feature", "properties": { "long": "49.00947005", "lat": "17.1122466", "name": "Nemocnice Kyjov, příspěvková organizace" }, "geometry": { "type": "Point", "coordinates": [ -563695.633456806186587, -1185121.184482745127752 ] } },
{ "type": "Feature", "properties": { "long": "49.00713729", "lat": "14.01078325", "name": "Nemocnice Prachatice, a.s." }, "geometry": { "type": "Point", "coordinates": [ -788929.038528073579073, -1157873.310552110895514 ] } },
{ "type": "Feature", "properties": { "long": "48.96070482", "lat": "14.4694183", "name": "Nemocnice České Budějovice, a.s." }, "geometry": { "type": "Point", "coordinates": [ -756398.412694421131164, -1167641.258738975040615 ] } },
{ "type": "Feature", "properties": { "long": "48.86944102", "lat": "16.05080526", "name": "Nemocnice Znojmo, příspěvková organizace" }, "geometry": { "type": "Point", "coordinates": [ -642676.134447694988921, -1192219.40193550940603 ] } },
{ "type": "Feature", "properties": { "long": "48.81146943", "lat": "14.32670326", "name": "Nemocnice Český Krumlov, a.s." }, "geometry": { "type": "Point", "coordinates": [ -769033.323340881615877, -1182653.376110997982323 ] } },
{ "type": "Feature", "properties": { "long": "48.75295196", "lat": "16.880744", "name": "Nemocnice Břeclav, příspěvková organizace" }, "geometry": { "type": "Point", "coordinates": [ -583504.105395438498817, -1211758.159987066406757 ] } },
{ "type": "Feature", "properties": { "long": "(prázdné)", "lat": "Krajská zdravotní, a.s. - Nemocnice Děčín, o.z.", "name": null }, "geometry": null }
]
}
